{
"type": "FeatureCollection",
"name": "hidden_gem",
"crs": { "type": "name", "properties": { "name": "urn:ogc:def:crs:OGC:1.3:CRS84" } },
"features": [
{ "type": "Feature", "properties": { "hex_id": "898c107837bffff", "kawasan": "Manggarai", "kode_kawasan": "MGR", "diskor": true, "jarak_simpul_m": 163, "menit_jalan": 5, "lat": -6.2097748807417812, "lon": 106.85157280750427, "hex_induk": "888c107837fffff", "pop_100m": null, "pop_usia_produktif": null, "total_luas_bangunan_m2": null, "jumlah_bangunan": null, "rasio_tutupan_bangunan": null, "risiko_banjir_indeks_mean": null, "risiko_banjir_indeks_max": null, "n_kompetitor": 0, "n_simpul_transit": 0, "n_generator_keramaian": 0, "n_poi_terpadu": 0, "zona_peruntukan": null, "izin_perdagangan": true, "zonasi_diketahui": false, "n_menu_go": 0, "n_struk_go": 0, "n_properti_go": 0, "n_activity": 0, "n_titik_survei": 0, "harga_median": null, "belanja_median": null, "skor_ramai_rata": null, "n_titik_kring": 0, "znt_rp_per_m2": null, "ridership_simpul": 57517269.0, "indeks_churn": null, "IPT": 100.0, "IAE": null, "Kompetisi": null, "Biaya_Risiko": null, "opportunity_score": 100.0, "residual_biaya": null, "iptt": 50.0, "hidden_gem_score": 70.0, "kuadran": "potensi_tinggi", "tingkat_keyakinan": "RENDAH", "versi_model": "loco-file-v1.0" }, "geometry": { "type": "Polygon", "coordinates": [ [ [ 106.853347575946671, -6.210210992640937 ], [ 106.852931407219103, -6.20847660537767 ], [ 106.851156623384881, -6.208040473419049 ], [ 106.849798012925334, -6.209338755785961 ], [ 106.850214206654726, -6.211073147324255 ], [ 106.851988985842297, -6.211509252221254 ], [ 106.853347575946671, -6.210210992640937 ] ] ] } },
{ "type": "Feature", "properties": { "hex_id": "898c1078363ffff", "kawasan": "Manggarai", "kode_kawasan": "MGR", "diskor": true, "jarak_simpul_m": 206, "menit_jalan": 5, "lat": -6.2106370293699111, "lon": 106.84843940133307, "hex_induk": "888c107837fffff", "pop_100m": null, "pop_usia_produktif": null, "total_luas_bangunan_m2": null, "jumlah_bangunan": null, "rasio_tutupan_bangunan": null, "risiko_banjir_indeks_mean": null, "risiko_banjir_indeks_max": null, "n_kompetitor": 0, "n_simpul_transit": 0, "n_generator_keramaian": 0, "n_poi_terpadu": 0, "zona_peruntukan": null, "izin_perdagangan": true, "zonasi_diketahui": false, "n_menu_go": 0, "n_struk_go": 0, "n_properti_go": 0, "n_activity": 0, "n_titik_survei": 0, "harga_median": null, "belanja_median": null, "skor_ramai_rata": null, "n_titik_kring": 0, "znt_rp_per_m2": null, "ridership_simpul": 57517269.0, "indeks_churn": null, "IPT": 100.0, "IAE": null, "Kompetisi": null, "Biaya_Risiko": null, "opportunity_score": 100.0, "residual_biaya": null, "iptt": 50.0, "hidden_gem_score": 70.0, "kuadran": "potensi_tinggi", "tingkat_keyakinan": "RENDAH", "versi_model": "loco-file-v1.0" }, "geometry": { "type": "Polygon", "coordinates": [ [ [ 106.850214206654726, -6.211073147324255 ], [ 106.849798012925334, -6.209338755785961 ], [ 106.848023192212736, -6.208902617774317 ], [ 106.846664569880176, -6.210200898359068 ], [ 106.847080788609588, -6.211935294167445 ], [ 106.848855604671996, -6.212371405121632 ], [ 106.850214206654726, -6.211073147324255 ] ] ] } },
{ "type": "Feature", "properties": { "hex_id": "898c107836bffff", "kawasan": "Manggarai", "kode_kawasan": "MGR", "diskor": true, "jarak_simpul_m": 257, "menit_jalan": 5, "lat": -6.2076043284052904, "lon": 106.84938181341455, "hex_induk": "888c107837fffff", "pop_100m": null, "pop_usia_produktif": null, "total_luas_bangunan_m2": null, "jumlah_bangunan": null, "rasio_tutupan_bangunan": null, "risiko_banjir_indeks_mean": null, "risiko_banjir_indeks_max": null, "n_kompetitor": 0, "n_simpul_transit": 0, "n_generator_keramaian": 0, "n_poi_terpadu": 0, "zona_peruntukan": null, "izin_perdagangan": true, "zonasi_diketahui": false, "n_menu_go": 0, "n_struk_go": 0, "n_properti_go": 0, "n_activity": 0, "n_titik_survei": 0, "harga_median": null, "belanja_median": null, "skor_ramai_rata": null, "n_titik_kring": 0, "znt_rp_per_m2": null, "ridership_simpul": 57517269.0, "indeks_churn": null, "IPT": 100.0, "IAE": null, "Kompetisi": null, "Biaya_Risiko": null, "opportunity_score": 100.0, "residual_biaya": null, "iptt": 50.0, "hidden_gem_score": 70.0, "kuadran": "potensi_tinggi", "tingkat_keyakinan": "RENDAH", "versi_model": "loco-file-v1.0" }, "geometry": { "type": "Polygon", "coordinates": [ [ [ 106.851156623384881, -6.208040473419049 ], [ 106.850740433484091, -6.206306030255412 ], [ 106.848965608122271, -6.205869865184568 ], [ 106.847606977310932, -6.207168170337221 ], [ 106.848023192212736, -6.208902617774317 ], [ 106.849798012925334, -6.209338755785961 ], [ 106.851156623384881, -6.208040473419049 ] ] ] } },
{ "type": "Feature", "properties": { "hex_id": "898c1078373ffff", "kawasan": "Manggarai", "kode_kawasan": "MGR", "diskor": true, "jarak_simpul_m": 340, "menit_jalan": 5, "lat": -6.2128075030178067, "lon": 106.85063039460276, "hex_induk": "888c107837fffff", "pop_100m": null, "pop_usia_produktif": null, "total_luas_bangunan_m2": null, "jumlah_bangunan": null, "rasio_tutupan_bangunan": null, "risiko_banjir_indeks_mean": null, "risiko_banjir_indeks_max": null, "n_kompetitor": 0, "n_simpul_transit": 0, "n_generator_keramaian": 0, "n_poi_terpadu": 0, "zona_peruntukan": null, "izin_perdagangan": true, "zonasi_diketahui": false, "n_menu_go": 0, "n_struk_go": 0, "n_properti_go": 0, "n_activity": 0, "n_titik_survei": 0, "harga_median": null, "belanja_median": null, "skor_ramai_rata": null, "n_titik_kring": 0, "znt_rp_per_m2": null, "ridership_simpul": 57517269.0, "indeks_churn": null, "IPT": 100.0, "IAE": null, "Kompetisi": null, "Biaya_Risiko": null, "opportunity_score": 100.0, "residual_biaya": null, "iptt": 50.0, "hidden_gem_score": 70.0, "kuadran": "potensi_tinggi", "tingkat_keyakinan": "RENDAH", "versi_model": "loco-file-v1.0" }, "geometry": { "type": "Polygon", "coordinates": [ [ [ 106.852405158399065, -6.213243587855133 ], [ 106.851988985842297, -6.211509252221254 ], [ 106.850214206654726, -6.211073147324255 ], [ 106.848855604671996, -6.212371405121632 ], [ 106.849271802229595, -6.214105745027156 ], [ 106.851046576769548, -6.214541822864293 ], [ 106.852405158399065, -6.213243587855133 ] ] ] } },
{ "type": "Feature", "properties": { "hex_id": "898c1079cb7ffff", "kawasan": "Manggarai", "kode_kawasan": "MGR", "diskor": true, "jarak_simpul_m": 432, "menit_jalan": 10, "lat": -6.2067421822726248, "lon": 106.85251523271019, "hex_induk": "888c1079cbfffff", "pop_100m": null, "pop_usia_produktif": null, "total_luas_bangunan_m2": null, "jumlah_bangunan": null, "rasio_tutupan_bangunan": null, "risiko_banjir_indeks_mean": null, "risiko_banjir_indeks_max": null, "n_kompetitor": 0, "n_simpul_transit": 0, "n_generator_keramaian": 0, "n_poi_terpadu": 0, "zona_peruntukan": null, "izin_perdagangan": true, "zonasi_diketahui": false, "n_menu_go": 0, "n_struk_go": 0, "n_properti_go": 0, "n_activity": 0, "n_titik_survei": 0, "harga_median": null, "belanja_median": null, "skor_ramai_rata": null, "n_titik_kring": 0, "znt_rp_per_m2": null, "ridership_simpul": 57517269.0, "indeks_churn": null, "IPT": 79.17, "IAE": null, "Kompetisi": null, "Biaya_Risiko": null, "opportunity_score": 79.17, "residual_biaya": null, "iptt": 50.0, "hidden_gem_score": 70.0, "kuadran": "potensi_tinggi", "tingkat_keyakinan": "RENDAH", "versi_model": "loco-file-v1.0" }, "geometry": { "type": "Polygon", "coordinates": [ [ [ 106.854290005797722, -6.207178321235371 ], [ 106.853873840899695, -6.205443882350131 ], [ 106.852099052419831, -6.205007723328142 ], [ 106.850740433484091, -6.206306030255412 ], [ 106.851156623384881, -6.208040473419049 ], [ 106.852931407219103, -6.20847660537767 ], [ 106.854290005797722, -6.207178321235371 ] ] ] } },
{ "type": "Feature", "properties": { "hex_id": "898c107836fffff", "kawasan": "Manggarai", "kode_kawasan": "MGR", "diskor": true, "jarak_simpul_m": 451, "menit_jalan": 10, "lat": -6.2084664667077005, "lon": 106.84624834536929, "hex_induk": "888c107837fffff", "pop_100m": null, "pop_usia_produktif": null, "total_luas_bangunan_m2": null, "jumlah_bangunan": null, "rasio_tutupan_bangunan": null, "risiko_banjir_indeks_mean": null, "risiko_banjir_indeks_max": null, "n_kompetitor": 0, "n_simpul_transit": 0, "n_generator_keramaian": 0, "n_poi_terpadu": 0, "zona_peruntukan": null, "izin_perdagangan": true, "zonasi_diketahui": false, "n_menu_go": 0, "n_struk_go": 0, "n_properti_go": 0, "n_activity": 0, "n_titik_survei": 0, "harga_median": null, "belanja_median": null, "skor_ramai_rata": null, "n_titik_kring": 0, "znt_rp_per_m2": null, "ridership_simpul": 57517269.0, "indeks_churn": null, "IPT": 79.17, "IAE": null, "Kompetisi": null, "Biaya_Risiko": null, "opportunity_score": 79.17, "residual_biaya": null, "iptt": 50.0, "hidden_gem_score": 70.0, "kuadran": "potensi_tinggi", "tingkat_keyakinan": "RENDAH", "versi_model": "loco-file-v1.0" }, "geometry": { "type": "Polygon", "coordinates": [ [ [ 106.848023192212736, -6.208902617774317 ], [ 106.847606977310932, -6.207168170337221 ], [ 106.84583211507686, -6.206731999215677 ], [ 106.844473472397837, -6.208030302586939 ], [ 106.84488971229888, -6.209764754292572 ], [ 106.846664569880176, -6.210200898359068 ], [ 106.848023192212736, -6.208902617774317 ] ] ] } },
{ "type": "Feature", "properties": { "hex_id": "898c1078347ffff", "kawasan": "Manggarai", "kode_kawasan": "MGR", "diskor": true, "jarak_simpul_m": 470, "menit_jalan": 10, "lat": -6.2119453440600845, "lon": 106.85376373889298, "hex_induk": "888c107835fffff", "pop_100m": null, "pop_usia_produktif": null, "total_luas_bangunan_m2": null, "jumlah_bangunan": null, "rasio_tutupan_bangunan": null, "risiko_banjir_indeks_mean": null, "risiko_banjir_indeks_max": null, "n_kompetitor": 0, "n_simpul_transit": 0, "n_generator_keramaian": 0, "n_poi_terpadu": 0, "zona_peruntukan": null, "izin_perdagangan": true, "zonasi_diketahui": false, "n_menu_go": 0, "n_struk_go": 0, "n_properti_go": 0, "n_activity": 0, "n_titik_survei": 0, "harga_median": null, "belanja_median": null, "skor_ramai_rata": null, "n_titik_kring": 0, "znt_rp_per_m2": null, "ridership_simpul": 57517269.0, "indeks_churn": null, "IPT": 79.17, "IAE": null, "Kompetisi": null, "Biaya_Risiko": null, "opportunity_score": 79.17, "residual_biaya": null, "iptt": 50.0, "hidden_gem_score": 70.0, "kuadran": "potensi_tinggi", "tingkat_keyakinan": "RENDAH", "versi_model": "loco-file-v1.0" }, "geometry": { "type": "Polygon", "coordinates": [ [ [ 106.855538465803946, -6.212381422839887 ], [ 106.855122318249769, -6.210647091482594 ], [ 106.853347575946671, -6.210210992640937 ], [ 106.851988985842297, -6.211509252221254 ], [ 106.852405158399065, -6.213243587855133 ], [ 106.854179896058099, -6.213679659632762 ], [ 106.855538465803946, -6.212381422839887 ] ] ] } },
{ "type": "Feature", "properties": { "hex_id": "898c1078377ffff", "kawasan": "Manggarai", "kode_kawasan": "MGR", "diskor": true, "jarak_simpul_m": 518, "menit_jalan": 10, "lat": -6.2136696541304817, "lon": 106.84749700155763, "hex_induk": "888c107837fffff", "pop_100m": null, "pop_usia_produktif": null, "total_luas_bangunan_m2": null, "jumlah_bangunan": null, "rasio_tutupan_bangunan": null, "risiko_banjir_indeks_mean": null, "risiko_banjir_indeks_max": null, "n_kompetitor": 0, "n_simpul_transit": 0, "n_generator_keramaian": 0, "n_poi_terpadu": 0, "zona_peruntukan": null, "izin_perdagangan": true, "zonasi_diketahui": false, "n_menu_go": 0, "n_struk_go": 0, "n_properti_go": 0, "n_activity": 0, "n_titik_survei": 0, "harga_median": null, "belanja_median": null, "skor_ramai_rata": null, "n_titik_kring": 0, "znt_rp_per_m2": null, "ridership_simpul": 57517269.0, "indeks_churn": null, "IPT": 79.17, "IAE": null, "Kompetisi": null, "Biaya_Risiko": null, "opportunity_score": 79.17, "residual_biaya": null, "iptt": 50.0, "hidden_gem_score": 70.0, "kuadran": "potensi_tinggi", "tingkat_keyakinan": "RENDAH", "versi_model": "loco-file-v1.0" }, "geometry": { "type": "Polygon", "coordinates": [ [ [ 106.849271802229595, -6.214105745027156 ], [ 106.848855604671996, -6.212371405121632 ], [ 106.847080788609588, -6.211935294167445 ], [ 106.84572217475646, -6.21323355017512 ], [ 106.846138397313126, -6.214967894347361 ], [ 106.847913208724336, -6.215403978245849 ], [ 106.849271802229595, -6.214105745027156 ] ] ] } },
{ "type": "Feature", "properties": { "hex_id": "898c107834fffff", "kawasan": "Manggarai", "kode_kawasan": "MGR", "diskor": true, "jarak_simpul_m": 519, "menit_jalan": 10, "lat": -6.2089127242803119, "lon": 106.85470616491438, "hex_induk": "888c107835fffff", "pop_100m": null, "pop_usia_produktif": null, "total_luas_bangunan_m2": null, "jumlah_bangunan": null, "rasio_tutupan_bangunan": null, "risiko_banjir_indeks_mean": null, "risiko_banjir_indeks_max": null, "n_kompetitor": 0, "n_simpul_transit": 0, "n_generator_keramaian": 0, "n_poi_terpadu": 0, "zona_peruntukan": null, "izin_perdagangan": true, "zonasi_diketahui": false, "n_menu_go": 0, "n_struk_go": 0, "n_properti_go": 0, "n_activity": 0, "n_titik_survei": 0, "harga_median": null, "belanja_median": null, "skor_ramai_rata": null, "n_titik_kring": 0, "znt_rp_per_m2": null, "ridership_simpul": 57517269.0, "indeks_churn": null, "IPT": 79.17, "IAE": null, "Kompetisi": null, "Biaya_Risiko": null, "opportunity_score": 79.17, "residual_biaya": null, "iptt": 50.0, "hidden_gem_score": 70.0, "kuadran": "potensi_tinggi", "tingkat_keyakinan": "RENDAH", "versi_model": "loco-file-v1.0" }, "geometry": { "type": "Polygon", "coordinates": [ [ [ 106.856480896467886, -6.209348830126118 ], [ 106.856064752743862, -6.207614447142813 ], [ 106.854290005797722, -6.207178321235371 ], [ 106.852931407219103, -6.20847660537767 ], [ 106.853347575946671, -6.210210992640937 ], [ 106.855122318249769, -6.210647091482594 ], [ 106.856480896467886, -6.209348830126118 ] ] ] } },
{ "type": "Feature", "properties": { "hex_id": "898c1078367ffff", "kawasan": "Manggarai", "kode_kawasan": "MGR", "diskor": true, "jarak_simpul_m": 563, "menit_jalan": 10, "lat": -6.2114991701560847, "lon": 106.84530594641841, "hex_induk": "888c107837fffff", "pop_100m": null, "pop_usia_produktif": null, "total_luas_bangunan_m2": null, "jumlah_bangunan": null, "rasio_tutupan_bangunan": null, "risiko_banjir_indeks_mean": null, "risiko_banjir_indeks_max": null, "n_kompetitor": 0, "n_simpul_transit": 0, "n_generator_keramaian": 0, "n_poi_terpadu": 0, "zona_peruntukan": null, "izin_perdagangan": true, "zonasi_diketahui": false, "n_menu_go": 0, "n_struk_go": 0, "n_properti_go": 0, "n_activity": 0, "n_titik_survei": 0, "harga_median": null, "belanja_median": null, "skor_ramai_rata": null, "n_titik_kring": 0, "znt_rp_per_m2": null, "ridership_simpul": 57517269.0, "indeks_churn": null, "IPT": 79.17, "IAE": null, "Kompetisi": null, "Biaya_Risiko": null, "opportunity_score": 79.17, "residual_biaya": null, "iptt": 50.0, "hidden_gem_score": 70.0, "kuadran": "potensi_tinggi", "tingkat_keyakinan": "RENDAH", "versi_model": "loco-file-v1.0" }, "geometry": { "type": "Polygon", "coordinates": [ [ [ 106.847080788609588, -6.211935294167445 ], [ 106.846664569880176, -6.210200898359068 ], [ 106.84488971229888, -6.209764754292572 ], [ 106.84353107810125, -6.211063033088389 ], [ 106.843947321828949, -6.212797433161916 ], [ 106.84572217475646, -6.21323355017512 ], [ 106.847080788609588, -6.211935294167445 ] ] ] } },
{ "type": "Feature", "properties": { "hex_id": "898c1079dd3ffff", "kawasan": "Manggarai", "kode_kawasan": "MGR", "diskor": true, "jarak_simpul_m": 582, "menit_jalan": 10, "lat": -6.2054336870609266, "lon": 106.84719075662757, "hex_induk": "888c1079ddfffff", "pop_100m": null, "pop_usia_produktif": null, "total_luas_bangunan_m2": null, "jumlah_bangunan": null, "rasio_tutupan_bangunan": null, "risiko_banjir_indeks_mean": null, "risiko_banjir_indeks_max": null, "n_kompetitor": 0, "n_simpul_transit": 0, "n_generator_keramaian": 0, "n_poi_terpadu": 0, "zona_peruntukan": null, "izin_perdagangan": true, "zonasi_diketahui": false, "n_menu_go": 0, "n_struk_go": 0, "n_properti_go": 0, "n_activity": 0, "n_titik_survei": 0, "harga_median": null, "belanja_median": null, "skor_ramai_rata": null, "n_titik_kring": 0, "znt_rp_per_m2": null, "ridership_simpul": 57517269.0, "indeks_churn": null, "IPT": 79.17, "IAE": null, "Kompetisi": null, "Biaya_Risiko": null, "opportunity_score": 79.17, "residual_biaya": null, "iptt": 50.0, "hidden_gem_score": 70.0, "kuadran": "potensi_tinggi", "tingkat_keyakinan": "RENDAH", "versi_model": "loco-file-v1.0" }, "geometry": { "type": "Polygon", "coordinates": [ [ [ 106.848965608122271, -6.205869865184568 ], [ 106.84854939704843, -6.204135366126132 ], [ 106.846774530162563, -6.203699167947813 ], [ 106.845415879002786, -6.204997495885348 ], [ 106.84583211507686, -6.206731999215677 ], [ 106.847606977310932, -6.207168170337221 ], [ 106.848965608122271, -6.205869865184568 ] ] ] } },
{ "type": "Feature", "properties": { "hex_id": "898c1079ca7ffff", "kawasan": "Manggarai", "kode_kawasan": "MGR", "diskor": true, "jarak_simpul_m": 582, "menit_jalan": 10, "lat": -6.2045715512531947, "lon": 106.8503242378018, "hex_induk": "888c1079cbfffff", "pop_100m": null, "pop_usia_produktif": null, "total_luas_bangunan_m2": null, "jumlah_bangunan": null, "rasio_tutupan_bangunan": null, "risiko_banjir_indeks_mean": null, "risiko_banjir_indeks_max": null, "n_kompetitor": 0, "n_simpul_transit": 0, "n_generator_keramaian": 0, "n_poi_terpadu": 0, "zona_peruntukan": null, "izin_perdagangan": true, "zonasi_diketahui": false, "n_menu_go": 0, "n_struk_go": 0, "n_properti_go": 0, "n_activity": 0, "n_titik_survei": 0, "harga_median": null, "belanja_median": null, "skor_ramai_rata": null, "n_titik_kring": 0, "znt_rp_per_m2": null, "ridership_simpul": 57517269.0, "indeks_churn": null, "IPT": 79.17, "IAE": null, "Kompetisi": null, "Biaya_Risiko": null, "opportunity_score": 79.17, "residual_biaya": null, "iptt": 50.0, "hidden_gem_score": 70.0, "kuadran": "potensi_tinggi", "tingkat_keyakinan": "RENDAH", "versi_model": "loco-file-v1.0" }, "geometry": { "type": "Polygon", "coordinates": [ [ [ 106.852099052419831, -6.205007723328142 ], [ 106.851682866347971, -6.203273228546556 ], [ 106.849908036337936, -6.202837036414754 ], [ 106.84854939704843, -6.204135366126132 ], [ 106.848965608122271, -6.205869865184568 ], [ 106.850740433484091, -6.206306030255412 ], [ 106.852099052419831, -6.205007723328142 ] ] ] } },
{ "type": "Feature", "properties": { "hex_id": "898c107830bffff", "kawasan": "Manggarai", "kode_kawasan": "MGR", "diskor": true, "jarak_simpul_m": 650, "menit_jalan": 10, "lat": -6.2149778876410711, "lon": 106.85282132517465, "hex_induk": "888c107831fffff", "pop_100m": null, "pop_usia_produktif": null, "total_luas_bangunan_m2": null, "jumlah_bangunan": null, "rasio_tutupan_bangunan": null, "risiko_banjir_indeks_mean": null, "risiko_banjir_indeks_max": null, "n_kompetitor": 0, "n_simpul_transit": 0, "n_generator_keramaian": 0, "n_poi_terpadu": 0, "zona_peruntukan": null, "izin_perdagangan": true, "zonasi_diketahui": false, "n_menu_go": 0, "n_struk_go": 0, "n_properti_go": 0, "n_activity": 0, "n_titik_survei": 0, "harga_median": null, "belanja_median": null, "skor_ramai_rata": null, "n_titik_kring": 0, "znt_rp_per_m2": null, "ridership_simpul": 57517269.0, "indeks_churn": null, "IPT": 79.17, "IAE": null, "Kompetisi": null, "Biaya_Risiko": null, "opportunity_score": 79.17, "residual_biaya": null, "iptt": 50.0, "hidden_gem_score": 70.0, "kuadran": "potensi_tinggi", "tingkat_keyakinan": "RENDAH", "versi_model": "loco-file-v1.0" }, "geometry": { "type": "Polygon", "coordinates": [ [ [ 106.854596047442087, -6.21541393935663 ], [ 106.854179896058099, -6.213679659632762 ], [ 106.852405158399065, -6.213243587855133 ], [ 106.851046576769548, -6.214541822864293 ], [ 106.851462753155147, -6.21627610686137 ], [ 106.853237486169121, -6.216712151576727 ], [ 106.854596047442087, -6.21541393935663 ] ] ] } },
{ "type": "Feature", "properties": { "hex_id": "898c107830fffff", "kawasan": "Manggarai", "kode_kawasan": "MGR", "diskor": true, "jarak_simpul_m": 673, "menit_jalan": 10, "lat": -6.2158400490841315, "lon": 106.84968799400595, "hex_induk": "888c107831fffff", "pop_100m": null, "pop_usia_produktif": null, "total_luas_bangunan_m2": null, "jumlah_bangunan": null, "rasio_tutupan_bangunan": null, "risiko_banjir_indeks_mean": null, "risiko_banjir_indeks_max": null, "n_kompetitor": 0, "n_simpul_transit": 0, "n_generator_keramaian": 0, "n_poi_terpadu": 0, "zona_peruntukan": null, "izin_perdagangan": true, "zonasi_diketahui": false, "n_menu_go": 0, "n_struk_go": 0, "n_properti_go": 0, "n_activity": 0, "n_titik_survei": 0, "harga_median": null, "belanja_median": null, "skor_ramai_rata": null, "n_titik_kring": 0, "znt_rp_per_m2": null, "ridership_simpul": 57517269.0, "indeks_churn": null, "IPT": 79.17, "IAE": null, "Kompetisi": null, "Biaya_Risiko": null, "opportunity_score": 79.17, "residual_biaya": null, "iptt": 50.0, "hidden_gem_score": 70.0, "kuadran": "potensi_tinggi", "tingkat_keyakinan": "RENDAH", "versi_model": "loco-file-v1.0" }, "geometry": { "type": "Polygon", "coordinates": [ [ [ 106.851462753155147, -6.21627610686137 ], [ 106.851046576769548, -6.214541822864293 ], [ 106.849271802229595, -6.214105745027156 ], [ 106.847913208724336, -6.215403978245849 ], [ 106.848329410109784, -6.217138266511182 ], [ 106.850104180001111, -6.217574317290217 ], [ 106.851462753155147, -6.21627610686137 ] ] ] } },
{ "type": "Feature", "properties": { "hex_id": "898c1079cb3ffff", "kawasan": "Manggarai", "kode_kawasan": "MGR", "diskor": true, "jarak_simpul_m": 752, "menit_jalan": 10, "lat": -6.2058800283183295, "lon": 106.85564860323858, "hex_induk": "888c1079cbfffff", "pop_100m": null, "pop_usia_produktif": null, "total_luas_bangunan_m2": null, "jumlah_bangunan": null, "rasio_tutupan_bangunan": null, "risiko_banjir_indeks_mean": null, "risiko_banjir_indeks_max": null, "n_kompetitor": 0, "n_simpul_transit": 0, "n_generator_keramaian": 0, "n_poi_terpadu": 0, "zona_peruntukan": null, "izin_perdagangan": true, "zonasi_diketahui": false, "n_menu_go": 0, "n_struk_go": 0, "n_properti_go": 0, "n_activity": 0, "n_titik_survei": 0, "harga_median": null, "belanja_median": null, "skor_ramai_rata": null, "n_titik_kring": 0, "znt_rp_per_m2": null, "ridership_simpul": 57517269.0, "indeks_churn": null, "IPT": 79.17, "IAE": null, "Kompetisi": null, "Biaya_Risiko": null, "opportunity_score": 79.17, "residual_biaya": null, "iptt": 50.0, "hidden_gem_score": 70.0, "kuadran": "potensi_tinggi", "tingkat_keyakinan": "RENDAH", "versi_model": "loco-file-v1.0" }, "geometry": { "type": "Polygon", "coordinates": [ [ [ 106.857423339433623, -6.206316161231891 ], [ 106.857007199540149, -6.204581726629996 ], [ 106.855232447951906, -6.20414557365502 ], [ 106.853873840899695, -6.205443882350131 ], [ 106.854290005797722, -6.207178321235371 ], [ 106.856064752743862, -6.207614447142813 ], [ 106.857423339433623, -6.206316161231891 ] ] ] } },
{ "type": "Feature", "properties": { "hex_id": "898c1078343ffff", "kawasan": "Manggarai", "kode_kawasan": "MGR", "diskor": true, "jarak_simpul_m": 765, "menit_jalan": 10, "lat": -6.2110831772659054, "lon": 106.85689703441069, "hex_induk": "888c107835fffff", "pop_100m": null, "pop_usia_produktif": null, "total_luas_bangunan_m2": null, "jumlah_bangunan": null, "rasio_tutupan_bangunan": null, "risiko_banjir_indeks_mean": null, "risiko_banjir_indeks_max": null, "n_kompetitor": 0, "n_simpul_transit": 0, "n_generator_keramaian": 0, "n_poi_terpadu": 0, "zona_peruntukan": null, "izin_perdagangan": true, "zonasi_diketahui": false, "n_menu_go": 0, "n_struk_go": 0, "n_properti_go": 0, "n_activity": 0, "n_titik_survei": 0, "harga_median": null, "belanja_median": null, "skor_ramai_rata": null, "n_titik_kring": 0, "znt_rp_per_m2": null, "ridership_simpul": 57517269.0, "indeks_churn": null, "IPT": 79.17, "IAE": null, "Kompetisi": null, "Biaya_Risiko": null, "opportunity_score": 79.17, "residual_biaya": null, "iptt": 50.0, "hidden_gem_score": 70.0, "kuadran": "potensi_tinggi", "tingkat_keyakinan": "RENDAH", "versi_model": "loco-file-v1.0" }, "geometry": { "type": "Polygon", "coordinates": [ [ [ 106.858671724426628, -6.211519249990046 ], [ 106.858255601876792, -6.209784922914258 ], [ 106.856480896467886, -6.209348830126118 ], [ 106.855122318249769, -6.210647091482594 ], [ 106.855538465803946, -6.212381422839887 ], [ 106.857313166572354, -6.21281748855984 ], [ 106.858671724426628, -6.211519249990046 ] ] ] } },
{ "type": "Feature", "properties": { "hex_id": "898c1079ca3ffff", "kawasan": "Manggarai", "kode_kawasan": "MGR", "diskor": true, "jarak_simpul_m": 772, "menit_jalan": 10, "lat": -6.2037094076269259, "lon": 106.85345767022024, "hex_induk": "888c1079cbfffff", "pop_100m": null, "pop_usia_produktif": null, "total_luas_bangunan_m2": null, "jumlah_bangunan": null, "rasio_tutupan_bangunan": null, "risiko_banjir_indeks_mean": null, "risiko_banjir_indeks_max": null, "n_kompetitor": 0, "n_simpul_transit": 0, "n_generator_keramaian": 0, "n_poi_terpadu": 0, "zona_peruntukan": null, "izin_perdagangan": true, "zonasi_diketahui": false, "n_menu_go": 0, "n_struk_go": 0, "n_properti_go": 0, "n_activity": 0, "n_titik_survei": 0, "harga_median": null, "belanja_median": null, "skor_ramai_rata": null, "n_titik_kring": 0, "znt_rp_per_m2": null, "ridership_simpul": 57517269.0, "indeks_churn": null, "IPT": 79.17, "IAE": null, "Kompetisi": null, "Biaya_Risiko": null, "opportunity_score": 79.17, "residual_biaya": null, "iptt": 50.0, "hidden_gem_score": 70.0, "kuadran": "potensi_tinggi", "tingkat_keyakinan": "RENDAH", "versi_model": "loco-file-v1.0" }, "geometry": { "type": "Polygon", "coordinates": [ [ [ 106.855232447951906, -6.20414557365502 ], [ 106.854816286883803, -6.202411083155221 ], [ 106.853041493759278, -6.201974897068108 ], [ 106.851682866347971, -6.203273228546556 ], [ 106.852099052419831, -6.205007723328142 ], [ 106.853873840899695, -6.205443882350131 ], [ 106.855232447951906, -6.20414557365502 ] ] ] } },
{ "type": "Feature", "properties": { "hex_id": "898c1079dd7ffff", "kawasan": "Manggarai", "kode_kawasan": "MGR", "diskor": true, "jarak_simpul_m": 773, "menit_jalan": 10, "lat": -6.2062958150415133, "lon": 106.84405722671515, "hex_induk": "888c1079ddfffff", "pop_100m": null, "pop_usia_produktif": null, "total_luas_bangunan_m2": null, "jumlah_bangunan": null, "rasio_tutupan_bangunan": null, "risiko_banjir_indeks_mean": null, "risiko_banjir_indeks_max": null, "n_kompetitor": 0, "n_simpul_transit": 0, "n_generator_keramaian": 0, "n_poi_terpadu": 0, "zona_peruntukan": null, "izin_perdagangan": true, "zonasi_diketahui": false, "n_menu_go": 0, "n_struk_go": 0, "n_properti_go": 0, "n_activity": 0, "n_titik_survei": 0, "harga_median": null, "belanja_median": null, "skor_ramai_rata": null, "n_titik_kring": 0, "znt_rp_per_m2": null, "ridership_simpul": 57517269.0, "indeks_churn": null, "IPT": 79.17, "IAE": null, "Kompetisi": null, "Biaya_Risiko": null, "opportunity_score": 79.17, "residual_biaya": null, "iptt": 50.0, "hidden_gem_score": 70.0, "kuadran": "potensi_tinggi", "tingkat_keyakinan": "RENDAH", "versi_model": "loco-file-v1.0" }, "geometry": { "type": "Polygon", "coordinates": [ [ [ 106.84583211507686, -6.206731999215677 ], [ 106.845415879002786, -6.204997495885348 ], [ 106.843640975250779, -6.204561291658657 ], [ 106.842282312228647, -6.205859617815573 ], [ 106.842698573301192, -6.207594125412873 ], [ 106.844473472397837, -6.208030302586939 ], [ 106.84583211507686, -6.206731999215677 ] ] ] } },
{ "type": "Feature", "properties": { "hex_id": "898c1079d9bffff", "kawasan": "Manggarai", "kode_kawasan": "MGR", "diskor": true, "jarak_simpul_m": 774, "menit_jalan": 10, "lat": -6.2093285971712655, "lon": 106.84311482859202, "hex_induk": "888c1079d9fffff", "pop_100m": null, "pop_usia_produktif": null, "total_luas_bangunan_m2": null, "jumlah_bangunan": null, "rasio_tutupan_bangunan": null, "risiko_banjir_indeks_mean": null, "risiko_banjir_indeks_max": null, "n_kompetitor": 0, "n_simpul_transit": 0, "n_generator_keramaian": 0, "n_poi_terpadu": 0, "zona_peruntukan": null, "izin_perdagangan": true, "zonasi_diketahui": false, "n_menu_go": 0, "n_struk_go": 0, "n_properti_go": 0, "n_activity": 0, "n_titik_survei": 0, "harga_median": null, "belanja_median": null, "skor_ramai_rata": null, "n_titik_kring": 0, "znt_rp_per_m2": null, "ridership_simpul": 57517269.0, "indeks_churn": null, "IPT": 79.17, "IAE": null, "Kompetisi": null, "Biaya_Risiko": null, "opportunity_score": 79.17, "residual_biaya": null, "iptt": 50.0, "hidden_gem_score": 70.0, "kuadran": "potensi_tinggi", "tingkat_keyakinan": "RENDAH", "versi_model": "loco-file-v1.0" }, "geometry": { "type": "Polygon", "coordinates": [ [ [ 106.84488971229888, -6.209764754292572 ], [ 106.844473472397837, -6.208030302586939 ], [ 106.842698573301192, -6.207594125412873 ], [ 106.841339918762401, -6.208892426995967 ], [ 106.841756183660948, -6.210626882965202 ], [ 106.84353107810125, -6.211063033088389 ], [ 106.84488971229888, -6.209764754292572 ] ] ] } },
{ "type": "Feature", "properties": { "hex_id": "898c1078357ffff", "kawasan": "Manggarai", "kode_kawasan": "MGR", "diskor": true, "jarak_simpul_m": 806, "menit_jalan": 15, "lat": -6.2141157183498654, "lon": 106.855954607577, "hex_induk": "888c107835fffff", "pop_100m": null, "pop_usia_produktif": null, "total_luas_bangunan_m2": null, "jumlah_bangunan": null, "rasio_tutupan_bangunan": null, "risiko_banjir_indeks_mean": null, "risiko_banjir_indeks_max": null, "n_kompetitor": 0, "n_simpul_transit": 0, "n_generator_keramaian": 0, "n_poi_terpadu": 0, "zona_peruntukan": null, "izin_perdagangan": true, "zonasi_diketahui": false, "n_menu_go": 0, "n_struk_go": 0, "n_properti_go": 0, "n_activity": 0, "n_titik_survei": 0, "harga_median": null, "belanja_median": null, "skor_ramai_rata": null, "n_titik_kring": 0, "znt_rp_per_m2": null, "ridership_simpul": 57517269.0, "indeks_churn": null, "IPT": 58.33, "IAE": null, "Kompetisi": null, "Biaya_Risiko": null, "opportunity_score": 58.33, "residual_biaya": null, "iptt": 23.68, "hidden_gem_score": 43.68, "kuadran": "potensi_tinggi", "tingkat_keyakinan": "RENDAH", "versi_model": "loco-file-v1.0" }, "geometry": { "type": "Polygon", "coordinates": [ [ [ 106.857729292952982, -6.214551764005587 ], [ 106.857313166572354, -6.21281748855984 ], [ 106.855538465803946, -6.212381422839887 ], [ 106.854179896058099, -6.213679659632762 ], [ 106.854596047442087, -6.21541393935663 ], [ 106.856370743569002, -6.21584997801015 ], [ 106.857729292952982, -6.214551764005587 ] ] ] } },
{ "type": "Feature", "properties": { "hex_id": "898c107832bffff", "kawasan": "Manggarai", "kode_kawasan": "MGR", "diskor": true, "jarak_simpul_m": 824, "menit_jalan": 15, "lat": -6.214531797389494, "lon": 106.84436355977518, "hex_induk": "888c107833fffff", "pop_100m": null, "pop_usia_produktif": null, "total_luas_bangunan_m2": null, "jumlah_bangunan": null, "rasio_tutupan_bangunan": null, "risiko_banjir_indeks_mean": null, "risiko_banjir_indeks_max": null, "n_kompetitor": 0, "n_simpul_transit": 0, "n_generator_keramaian": 0, "n_poi_terpadu": 0, "zona_peruntukan": null, "izin_perdagangan": true, "zonasi_diketahui": false, "n_menu_go": 0, "n_struk_go": 0, "n_properti_go": 0, "n_activity": 0, "n_titik_survei": 0, "harga_median": null, "belanja_median": null, "skor_ramai_rata": null, "n_titik_kring": 0, "znt_rp_per_m2": null, "ridership_simpul": 57517269.0, "indeks_churn": null, "IPT": 58.33, "IAE": null, "Kompetisi": null, "Biaya_Risiko": null, "opportunity_score": 58.33, "residual_biaya": null, "iptt": 23.68, "hidden_gem_score": 43.68, "kuadran": "potensi_tinggi", "tingkat_keyakinan": "RENDAH", "versi_model": "loco-file-v1.0" }, "geometry": { "type": "Polygon", "coordinates": [ [ [ 106.846138397313126, -6.214967894347361 ], [ 106.84572217475646, -6.21323355017512 ], [ 106.843947321828949, -6.212797433161916 ], [ 106.84258869611331, -6.214095687373117 ], [ 106.843004943667268, -6.215830035807112 ], [ 106.844779791940041, -6.216266125768797 ], [ 106.846138397313126, -6.214967894347361 ] ] ] } },
{ "type": "Feature", "properties": { "hex_id": "898c1079ddbffff", "kawasan": "Manggarai", "kode_kawasan": "MGR", "diskor": true, "jarak_simpul_m": 851, "menit_jalan": 15, "lat": -6.2024008312323549, "lon": 106.84813318019296, "hex_induk": "888c1079ddfffff", "pop_100m": null, "pop_usia_produktif": null, "total_luas_bangunan_m2": null, "jumlah_bangunan": null, "rasio_tutupan_bangunan": null, "risiko_banjir_indeks_mean": null, "risiko_banjir_indeks_max": null, "n_kompetitor": 0, "n_simpul_transit": 0, "n_generator_keramaian": 0, "n_poi_terpadu": 0, "zona_peruntukan": null, "izin_perdagangan": true, "zonasi_diketahui": false, "n_menu_go": 0, "n_struk_go": 0, "n_properti_go": 0, "n_activity": 0, "n_titik_survei": 0, "harga_median": null, "belanja_median": null, "skor_ramai_rata": null, "n_titik_kring": 0, "znt_rp_per_m2": null, "ridership_simpul": 57517269.0, "indeks_churn": null, "IPT": 58.33, "IAE": null, "Kompetisi": null, "Biaya_Risiko": null, "opportunity_score": 58.33, "residual_biaya": null, "iptt": 23.68, "hidden_gem_score": 43.68, "kuadran": "potensi_tinggi", "tingkat_keyakinan": "RENDAH", "versi_model": "loco-file-v1.0" }, "geometry": { "type": "Polygon", "coordinates": [ [ [ 106.849908036337936, -6.202837036414754 ], [ 106.849491829092415, -6.201102485742421 ], [ 106.847716957555747, -6.200666260505552 ], [ 106.846358297915856, -6.201964613000194 ], [ 106.846774530162563, -6.203699167947813 ], [ 106.84854939704843, -6.204135366126132 ], [ 106.849908036337936, -6.202837036414754 ] ] ] } },
{ "type": "Feature", "properties": { "hex_id": "898c107833bffff", "kawasan": "Manggarai", "kode_kawasan": "MGR", "diskor": true, "jarak_simpul_m": 862, "menit_jalan": 15, "lat": -6.2167022026704268, "lon": 106.84655461408848, "hex_induk": "888c107833fffff", "pop_100m": null, "pop_usia_produktif": null, "total_luas_bangunan_m2": null, "jumlah_bangunan": null, "rasio_tutupan_bangunan": null, "risiko_banjir_indeks_mean": null, "risiko_banjir_indeks_max": null, "n_kompetitor": 0, "n_simpul_transit": 0, "n_generator_keramaian": 0, "n_poi_terpadu": 0, "zona_peruntukan": null, "izin_perdagangan": true, "zonasi_diketahui": false, "n_menu_go": 0, "n_struk_go": 0, "n_properti_go": 0, "n_activity": 0, "n_titik_survei": 0, "harga_median": null, "belanja_median": null, "skor_ramai_rata": null, "n_titik_kring": 0, "znt_rp_per_m2": null, "ridership_simpul": 57517269.0, "indeks_churn": null, "IPT": 58.33, "IAE": null, "Kompetisi": null, "Biaya_Risiko": null, "opportunity_score": 58.33, "residual_biaya": null, "iptt": 23.68, "hidden_gem_score": 43.68, "kuadran": "potensi_tinggi", "tingkat_keyakinan": "RENDAH", "versi_model": "loco-file-v1.0" }, "geometry": { "type": "Polygon", "coordinates": [ [ [ 106.848329410109784, -6.217138266511182 ], [ 106.847913208724336, -6.215403978245849 ], [ 106.846138397313126, -6.214967894347361 ], [ 106.844779791940041, -6.216266125768797 ], [ 106.845196018323591, -6.218000418297465 ], [ 106.846970825082593, -6.218436475142008 ], [ 106.848329410109784, -6.217138266511182 ] ] ] } },
{ "type": "Feature", "properties": { "hex_id": "898c107834bffff", "kawasan": "Manggarai", "kode_kawasan": "MGR", "diskor": true, "jarak_simpul_m": 877, "menit_jalan": 15, "lat": -6.2080505599940974, "lon": 106.85783947354582, "hex_induk": "888c107835fffff", "pop_100m": null, "pop_usia_produktif": null, "total_luas_bangunan_m2": null, "jumlah_bangunan": null, "rasio_tutupan_bangunan": null, "risiko_banjir_indeks_mean": null, "risiko_banjir_indeks_max": null, "n_kompetitor": 0, "n_simpul_transit": 0, "n_generator_keramaian": 0, "n_poi_terpadu": 0, "zona_peruntukan": null, "izin_perdagangan": true, "zonasi_diketahui": false, "n_menu_go": 0, "n_struk_go": 0, "n_properti_go": 0, "n_activity": 0, "n_titik_survei": 0, "harga_median": null, "belanja_median": null, "skor_ramai_rata": null, "n_titik_kring": 0, "znt_rp_per_m2": null, "ridership_simpul": 57517269.0, "indeks_churn": null, "IPT": 58.33, "IAE": null, "Kompetisi": null, "Biaya_Risiko": null, "opportunity_score": 58.33, "residual_biaya": null, "iptt": 23.68, "hidden_gem_score": 43.68, "kuadran": "potensi_tinggi", "tingkat_keyakinan": "RENDAH", "versi_model": "loco-file-v1.0" }, "geometry": { "type": "Polygon", "coordinates": [ [ [ 106.859614168200736, -6.208486659788395 ], [ 106.859198049482046, -6.206752281089985 ], [ 106.857423339433623, -6.206316161231891 ], [ 106.856064752743862, -6.207614447142813 ], [ 106.856480896467886, -6.209348830126118 ], [ 106.858255601876792, -6.209784922914258 ], [ 106.859614168200736, -6.208486659788395 ] ] ] } },
{ "type": "Feature", "properties": { "hex_id": "898c1079dc3ffff", "kawasan": "Manggarai", "kode_kawasan": "MGR", "diskor": true, "jarak_simpul_m": 920, "menit_jalan": 15, "lat": -6.2032629567190458, "lon": 106.84499963714703, "hex_induk": "888c1079ddfffff", "pop_100m": null, "pop_usia_produktif": null, "total_luas_bangunan_m2": null, "jumlah_bangunan": null, "rasio_tutupan_bangunan": null, "risiko_banjir_indeks_mean": null, "risiko_banjir_indeks_max": null, "n_kompetitor": 0, "n_simpul_transit": 0, "n_generator_keramaian": 0, "n_poi_terpadu": 0, "zona_peruntukan": null, "izin_perdagangan": true, "zonasi_diketahui": false, "n_menu_go": 0, "n_struk_go": 0, "n_properti_go": 0, "n_activity": 0, "n_titik_survei": 0, "harga_median": null, "belanja_median": null, "skor_ramai_rata": null, "n_titik_kring": 0, "znt_rp_per_m2": null, "ridership_simpul": 57517269.0, "indeks_churn": null, "IPT": 58.33, "IAE": null, "Kompetisi": null, "Biaya_Risiko": null, "opportunity_score": 58.33, "residual_biaya": null, "iptt": 23.68, "hidden_gem_score": 43.68, "kuadran": "potensi_tinggi", "tingkat_keyakinan": "RENDAH", "versi_model": "loco-file-v1.0" }, "geometry": { "type": "Polygon", "coordinates": [ [ [ 106.846774530162563, -6.203699167947813 ], [ 106.846358297915856, -6.201964613000194 ], [ 106.844583389509481, -6.20152838171912 ], [ 106.843224718004649, -6.202826732440696 ], [ 106.843640975250779, -6.204561291658657 ], [ 106.845415879002786, -6.204997495885348 ], [ 106.846774530162563, -6.203699167947813 ] ] ] } },
{ "type": "Feature", "properties": { "hex_id": "898c1079d93ffff", "kawasan": "Manggarai", "kode_kawasan": "MGR", "diskor": true, "jarak_simpul_m": 921, "menit_jalan": 15, "lat": -6.21236130309169, "lon": 106.84217244277789, "hex_induk": "888c1079d9fffff", "pop_100m": null, "pop_usia_produktif": null, "total_luas_bangunan_m2": null, "jumlah_bangunan": null, "rasio_tutupan_bangunan": null, "risiko_banjir_indeks_mean": null, "risiko_banjir_indeks_max": null, "n_kompetitor": 0, "n_simpul_transit": 0, "n_generator_keramaian": 0, "n_poi_terpadu": 0, "zona_peruntukan": null, "izin_perdagangan": true, "zonasi_diketahui": false, "n_menu_go": 0, "n_struk_go": 0, "n_properti_go": 0, "n_activity": 0, "n_titik_survei": 0, "harga_median": null, "belanja_median": null, "skor_ramai_rata": null, "n_titik_kring": 0, "znt_rp_per_m2": null, "ridership_simpul": 57517269.0, "indeks_churn": null, "IPT": 58.33, "IAE": null, "Kompetisi": null, "Biaya_Risiko": null, "opportunity_score": 58.33, "residual_biaya": null, "iptt": 23.68, "hidden_gem_score": 43.68, "kuadran": "potensi_tinggi", "tingkat_keyakinan": "RENDAH", "versi_model": "loco-file-v1.0" }, "geometry": { "type": "Polygon", "coordinates": [ [ [ 106.843947321828949, -6.212797433161916 ], [ 106.84353107810125, -6.211063033088389 ], [ 106.841756183660948, -6.210626882965202 ], [ 106.840397537606137, -6.211925159965304 ], [ 106.840813806330345, -6.213659564299045 ], [ 106.84258869611331, -6.214095687373117 ], [ 106.843947321828949, -6.212797433161916 ] ] ] } },
{ "type": "Feature", "properties": { "hex_id": "898c1079cafffff", "kawasan": "Manggarai", "kode_kawasan": "MGR", "diskor": true, "jarak_simpul_m": 928, "menit_jalan": 15, "lat": -6.2015386979302267, "lon": 106.85126667449454, "hex_induk": "888c1079cbfffff", "pop_100m": null, "pop_usia_produktif": null, "total_luas_bangunan_m2": null, "jumlah_bangunan": null, "rasio_tutupan_bangunan": null, "risiko_banjir_indeks_mean": null, "risiko_banjir_indeks_max": null, "n_kompetitor": 0, "n_simpul_transit": 0, "n_generator_keramaian": 0, "n_poi_terpadu": 0, "zona_peruntukan": null, "izin_perdagangan": true, "zonasi_diketahui": false, "n_menu_go": 0, "n_struk_go": 0, "n_properti_go": 0, "n_activity": 0, "n_titik_survei": 0, "harga_median": null, "belanja_median": null, "skor_ramai_rata": null, "n_titik_kring": 0, "znt_rp_per_m2": null, "ridership_simpul": 57517269.0, "indeks_churn": null, "IPT": 58.33, "IAE": null, "Kompetisi": null, "Biaya_Risiko": null, "opportunity_score": 58.33, "residual_biaya": null, "iptt": 23.68, "hidden_gem_score": 43.68, "kuadran": "potensi_tinggi", "tingkat_keyakinan": "RENDAH", "versi_model": "loco-file-v1.0" }, "geometry": { "type": "Polygon", "coordinates": [ [ [ 106.853041493759278, -6.201974897068108 ], [ 106.852625311516718, -6.200240350676004 ], [ 106.850850476859449, -6.199804131481486 ], [ 106.849491829092415, -6.201102485742421 ], [ 106.849908036337936, -6.202837036414754 ], [ 106.851682866347971, -6.203273228546556 ], [ 106.853041493759278, -6.201974897068108 ] ] ] } },
{ "type": "Feature", "properties": { "hex_id": "898c1078303ffff", "kawasan": "Manggarai", "kode_kawasan": "MGR", "diskor": true, "jarak_simpul_m": 934, "menit_jalan": 15, "lat": -6.218010355006693, "lon": 106.85187892375966, "hex_induk": "888c107831fffff", "pop_100m": null, "pop_usia_produktif": null, "total_luas_bangunan_m2": null, "jumlah_bangunan": null, "rasio_tutupan_bangunan": null, "risiko_banjir_indeks_mean": null, "risiko_banjir_indeks_max": null, "n_kompetitor": 0, "n_simpul_transit": 0, "n_generator_keramaian": 0, "n_poi_terpadu": 0, "zona_peruntukan": null, "izin_perdagangan": true, "zonasi_diketahui": false, "n_menu_go": 0, "n_struk_go": 0, "n_properti_go": 0, "n_activity": 0, "n_titik_survei": 0, "harga_median": null, "belanja_median": null, "skor_ramai_rata": null, "n_titik_kring": 0, "znt_rp_per_m2": null, "ridership_simpul": 57517269.0, "indeks_churn": null, "IPT": 58.33, "IAE": null, "Kompetisi": null, "Biaya_Risiko": null, "opportunity_score": 58.33, "residual_biaya": null, "iptt": 23.68, "hidden_gem_score": 43.68, "kuadran": "potensi_tinggi", "tingkat_keyakinan": "RENDAH", "versi_model": "loco-file-v1.0" }, "geometry": { "type": "Polygon", "coordinates": [ [ [ 106.85365364138255, -6.218446379659773 ], [ 106.853237486169121, -6.216712151576727 ], [ 106.851462753155147, -6.21627610686137 ], [ 106.850104180001111, -6.217574317290217 ], [ 106.850520360215199, -6.219308549643084 ], [ 106.852295088583134, -6.219744567297925 ], [ 106.85365364138255, -6.218446379659773 ] ] ] } },
{ "type": "Feature", "properties": { "hex_id": "898c107831bffff", "kawasan": "Manggarai", "kode_kawasan": "MGR", "diskor": true, "jarak_simpul_m": 981, "menit_jalan": 15, "lat": -6.2171481832293578, "lon": 106.85501219304501, "hex_induk": "888c107831fffff", "pop_100m": null, "pop_usia_produktif": null, "total_luas_bangunan_m2": null, "jumlah_bangunan": null, "rasio_tutupan_bangunan": null, "risiko_banjir_indeks_mean": null, "risiko_banjir_indeks_max": null, "n_kompetitor": 0, "n_simpul_transit": 0, "n_generator_keramaian": 0, "n_poi_terpadu": 0, "zona_peruntukan": null, "izin_perdagangan": true, "zonasi_diketahui": false, "n_menu_go": 0, "n_struk_go": 0, "n_properti_go": 0, "n_activity": 0, "n_titik_survei": 0, "harga_median": null, "belanja_median": null, "skor_ramai_rata": null, "n_titik_kring": 0, "znt_rp_per_m2": null, "ridership_simpul": 57517269.0, "indeks_churn": null, "IPT": 58.33, "IAE": null, "Kompetisi": null, "Biaya_Risiko": null, "opportunity_score": 58.33, "residual_biaya": null, "iptt": 23.68, "hidden_gem_score": 43.68, "kuadran": "potensi_tinggi", "tingkat_keyakinan": "RENDAH", "versi_model": "loco-file-v1.0" }, "geometry": { "type": "Polygon", "coordinates": [ [ [ 106.856786873780038, -6.217584201818443 ], [ 106.856370743569002, -6.21584997801015 ], [ 106.854596047442087, -6.21541393935663 ], [ 106.853237486169121, -6.216712151576727 ], [ 106.85365364138255, -6.218446379659773 ], [ 106.855428332867007, -6.218882391248602 ], [ 106.856786873780038, -6.217584201818443 ] ] ] } },
{ "type": "Feature", "properties": { "hex_id": "898c1078307ffff", "kawasan": "Manggarai", "kode_kawasan": "MGR", "diskor": true, "jarak_simpul_m": 1020, "menit_jalan": 15, "lat": -6.2188725189241625, "lon": 106.84874560571407, "hex_induk": "888c107831fffff", "pop_100m": null, "pop_usia_produktif": null, "total_luas_bangunan_m2": null, "jumlah_bangunan": null, "rasio_tutupan_bangunan": null, "risiko_banjir_indeks_mean": null, "risiko_banjir_indeks_max": null, "n_kompetitor": 0, "n_simpul_transit": 0, "n_generator_keramaian": 0, "n_poi_terpadu": 0, "zona_peruntukan": null, "izin_perdagangan": true, "zonasi_diketahui": false, "n_menu_go": 0, "n_struk_go": 0, "n_properti_go": 0, "n_activity": 0, "n_titik_survei": 0, "harga_median": null, "belanja_median": null, "skor_ramai_rata": null, "n_titik_kring": 0, "znt_rp_per_m2": null, "ridership_simpul": 57517269.0, "indeks_churn": null, "IPT": 58.33, "IAE": null, "Kompetisi": null, "Biaya_Risiko": null, "opportunity_score": 58.33, "residual_biaya": null, "iptt": 23.68, "hidden_gem_score": 43.68, "kuadran": "potensi_tinggi", "tingkat_keyakinan": "RENDAH", "versi_model": "loco-file-v1.0" }, "geometry": { "type": "Polygon", "coordinates": [ [ [ 106.850520360215199, -6.219308549643084 ], [ 106.850104180001111, -6.217574317290217 ], [ 106.848329410109784, -6.217138266511182 ], [ 106.846970825082593, -6.218436475142008 ], [ 106.847387030295565, -6.220170711759763 ], [ 106.849161795537285, -6.220606735482441 ], [ 106.850520360215199, -6.219308549643084 ] ] ] } },
{ "type": "Feature", "properties": { "hex_id": "898c1079cbbffff", "kawasan": "Manggarai", "kode_kawasan": "MGR", "diskor": true, "jarak_simpul_m": 1055, "menit_jalan": 15, "lat": -6.2028472561907355, "lon": 106.85659105386529, "hex_induk": "888c1079cbfffff", "pop_100m": null, "pop_usia_produktif": null, "total_luas_bangunan_m2": null, "jumlah_bangunan": null, "rasio_tutupan_bangunan": null, "risiko_banjir_indeks_mean": null, "risiko_banjir_indeks_max": null, "n_kompetitor": 0, "n_simpul_transit": 0, "n_generator_keramaian": 0, "n_poi_terpadu": 0, "zona_peruntukan": null, "izin_perdagangan": true, "zonasi_diketahui": false, "n_menu_go": 0, "n_struk_go": 0, "n_properti_go": 0, "n_activity": 0, "n_titik_survei": 0, "harga_median": null, "belanja_median": null, "skor_ramai_rata": null, "n_titik_kring": 0, "znt_rp_per_m2": null, "ridership_simpul": 57517269.0, "indeks_churn": null, "IPT": 58.33, "IAE": null, "Kompetisi": null, "Biaya_Risiko": null, "opportunity_score": 58.33, "residual_biaya": null, "iptt": 23.68, "hidden_gem_score": 43.68, "kuadran": "potensi_tinggi", "tingkat_keyakinan": "RENDAH", "versi_model": "loco-file-v1.0" }, "geometry": { "type": "Polygon", "coordinates": [ [ [ 106.858365794700916, -6.203283416173814 ], [ 106.857949658638319, -6.20154892996073 ], [ 106.856174902408995, -6.201112749916466 ], [ 106.854816286883803, -6.202411083155221 ], [ 106.855232447951906, -6.20414557365502 ], [ 106.857007199540149, -6.204581726629996 ], [ 106.858365794700916, -6.203283416173814 ] ] ] } },
{ "type": "Feature", "properties": { "hex_id": "898c1079d8bffff", "kawasan": "Manggarai", "kode_kawasan": "MGR", "diskor": true, "jarak_simpul_m": 1056, "menit_jalan": 15, "lat": -6.2071579351863493, "lon": 106.84092364808217, "hex_induk": "888c1079d9fffff", "pop_100m": null, "pop_usia_produktif": null, "total_luas_bangunan_m2": null, "jumlah_bangunan": null, "rasio_tutupan_bangunan": null, "risiko_banjir_indeks_mean": null, "risiko_banjir_indeks_max": null, "n_kompetitor": 0, "n_simpul_transit": 0, "n_generator_keramaian": 0, "n_poi_terpadu": 0, "zona_peruntukan": null, "izin_perdagangan": true, "zonasi_diketahui": false, "n_menu_go": 0, "n_struk_go": 0, "n_properti_go": 0, "n_activity": 0, "n_titik_survei": 0, "harga_median": null, "belanja_median": null, "skor_ramai_rata": null, "n_titik_kring": 0, "znt_rp_per_m2": null, "ridership_simpul": 57517269.0, "indeks_churn": null, "IPT": 58.33, "IAE": null, "Kompetisi": null, "Biaya_Risiko": null, "opportunity_score": 58.33, "residual_biaya": null, "iptt": 23.68, "hidden_gem_score": 43.68, "kuadran": "potensi_tinggi", "tingkat_keyakinan": "RENDAH", "versi_model": "loco-file-v1.0" }, "geometry": { "type": "Polygon", "coordinates": [ [ [ 106.842698573301192, -6.207594125412873 ], [ 106.842282312228647, -6.205859617815573 ], [ 106.840507371620191, -6.205423407538682 ], [ 106.839148696743635, -6.206721731908201 ], [ 106.839564982812846, -6.208456243767537 ], [ 106.841339918762401, -6.208892426995967 ], [ 106.842698573301192, -6.207594125412873 ] ] ] } },
{ "type": "Feature", "properties": { "hex_id": "898c1078353ffff", "kawasan": "Manggarai", "kode_kawasan": "MGR", "diskor": true, "jarak_simpul_m": 1065, "menit_jalan": 15, "lat": -6.2132535412191059, "lon": 106.85908784119539, "hex_induk": "888c107835fffff", "pop_100m": null, "pop_usia_produktif": null, "total_luas_bangunan_m2": null, "jumlah_bangunan": null, "rasio_tutupan_bangunan": null, "risiko_banjir_indeks_mean": null, "risiko_banjir_indeks_max": null, "n_kompetitor": 0, "n_simpul_transit": 0, "n_generator_keramaian": 0, "n_poi_terpadu": 0, "zona_peruntukan": null, "izin_perdagangan": true, "zonasi_diketahui": false, "n_menu_go": 0, "n_struk_go": 0, "n_properti_go": 0, "n_activity": 0, "n_titik_survei": 0, "harga_median": null, "belanja_median": null, "skor_ramai_rata": null, "n_titik_kring": 0, "znt_rp_per_m2": null, "ridership_simpul": 57517269.0, "indeks_churn": null, "IPT": 58.33, "IAE": null, "Kompetisi": null, "Biaya_Risiko": null, "opportunity_score": 58.33, "residual_biaya": null, "iptt": 23.68, "hidden_gem_score": 43.68, "kuadran": "potensi_tinggi", "tingkat_keyakinan": "RENDAH", "versi_model": "loco-file-v1.0" }, "geometry": { "type": "Polygon", "coordinates": [ [ [ 106.860862489670211, -6.213689580816826 ], [ 106.860446388294747, -6.211955309654156 ], [ 106.858671724426628, -6.211519249990046 ], [ 106.857313166572354, -6.21281748855984 ], [ 106.857729292952982, -6.214551764005587 ], [ 106.859503952183175, -6.214987796599105 ], [ 106.860862489670211, -6.213689580816826 ] ] ] } },
{ "type": "Feature", "properties": { "hex_id": "898c1079c87ffff", "kawasan": "Manggarai", "kode_kawasan": "MGR", "diskor": true, "jarak_simpul_m": 1097, "menit_jalan": 15, "lat": -6.2050178665510067, "lon": 106.85878192498213, "hex_induk": "888c1079c9fffff", "pop_100m": null, "pop_usia_produktif": null, "total_luas_bangunan_m2": null, "jumlah_bangunan": null, "rasio_tutupan_bangunan": null, "risiko_banjir_indeks_mean": null, "risiko_banjir_indeks_max": null, "n_kompetitor": 0, "n_simpul_transit": 0, "n_generator_keramaian": 0, "n_poi_terpadu": 0, "zona_peruntukan": null, "izin_perdagangan": true, "zonasi_diketahui": false, "n_menu_go": 0, "n_struk_go": 0, "n_properti_go": 0, "n_activity": 0, "n_titik_survei": 0, "harga_median": null, "belanja_median": null, "skor_ramai_rata": null, "n_titik_kring": 0, "znt_rp_per_m2": null, "ridership_simpul": 57517269.0, "indeks_churn": null, "IPT": 58.33, "IAE": null, "Kompetisi": null, "Biaya_Risiko": null, "opportunity_score": 58.33, "residual_biaya": null, "iptt": 23.68, "hidden_gem_score": 43.68, "kuadran": "potensi_tinggi", "tingkat_keyakinan": "RENDAH", "versi_model": "loco-file-v1.0" }, "geometry": { "type": "Polygon", "coordinates": [ [ [ 106.860556624275034, -6.20545399341723 ], [ 106.860140509387847, -6.203719563103602 ], [ 106.858365794700916, -6.203283416173814 ], [ 106.857007199540149, -6.204581726629996 ], [ 106.857423339433623, -6.206316161231891 ], [ 106.859198049482046, -6.206752281089985 ], [ 106.860556624275034, -6.20545399341723 ] ] ] } },
{ "type": "Feature", "properties": { "hex_id": "898c107835bffff", "kawasan": "Manggarai", "kode_kawasan": "MGR", "diskor": true, "jarak_simpul_m": 1099, "menit_jalan": 15, "lat": -6.2102210026439053, "lon": 106.86003028113828, "hex_induk": "888c107835fffff", "pop_100m": null, "pop_usia_produktif": null, "total_luas_bangunan_m2": null, "jumlah_bangunan": null, "rasio_tutupan_bangunan": null, "risiko_banjir_indeks_mean": null, "risiko_banjir_indeks_max": null, "n_kompetitor": 0, "n_simpul_transit": 0, "n_generator_keramaian": 0, "n_poi_terpadu": 0, "zona_peruntukan": null, "izin_perdagangan": true, "zonasi_diketahui": false, "n_menu_go": 0, "n_struk_go": 0, "n_properti_go": 0, "n_activity": 0, "n_titik_survei": 0, "harga_median": null, "belanja_median": null, "skor_ramai_rata": null, "n_titik_kring": 0, "znt_rp_per_m2": null, "ridership_simpul": 57517269.0, "indeks_churn": null, "IPT": 58.33, "IAE": null, "Kompetisi": null, "Biaya_Risiko": null, "opportunity_score": 58.33, "residual_biaya": null, "iptt": 23.68, "hidden_gem_score": 43.68, "kuadran": "potensi_tinggi", "tingkat_keyakinan": "RENDAH", "versi_model": "loco-file-v1.0" }, "geometry": { "type": "Polygon", "coordinates": [ [ [ 106.861804934249506, -6.210657069314204 ], [ 106.861388836705785, -6.208922746524868 ], [ 106.859614168200736, -6.208486659788395 ], [ 106.858255601876792, -6.209784922914258 ], [ 106.858671724426628, -6.211519249990046 ], [ 106.860446388294747, -6.211955309654156 ], [ 106.861804934249506, -6.210657069314204 ] ] ] } },
{ "type": "Feature", "properties": { "hex_id": "898c1079dc7ffff", "kawasan": "Manggarai", "kode_kawasan": "MGR", "diskor": true, "jarak_simpul_m": 1108, "menit_jalan": 15, "lat": -6.2041250743816878, "lon": 106.84186604537436, "hex_induk": "888c1079ddfffff", "pop_100m": null, "pop_usia_produktif": null, "total_luas_bangunan_m2": null, "jumlah_bangunan": null, "rasio_tutupan_bangunan": null, "risiko_banjir_indeks_mean": null, "risiko_banjir_indeks_max": null, "n_kompetitor": 0, "n_simpul_transit": 0, "n_generator_keramaian": 0, "n_poi_terpadu": 0, "zona_peruntukan": null, "izin_perdagangan": true, "zonasi_diketahui": false, "n_menu_go": 0, "n_struk_go": 0, "n_properti_go": 0, "n_activity": 0, "n_titik_survei": 0, "harga_median": null, "belanja_median": null, "skor_ramai_rata": null, "n_titik_kring": 0, "znt_rp_per_m2": null, "ridership_simpul": 57517269.0, "indeks_churn": null, "IPT": 58.33, "IAE": null, "Kompetisi": null, "Biaya_Risiko": null, "opportunity_score": 58.33, "residual_biaya": null, "iptt": 23.68, "hidden_gem_score": 43.68, "kuadran": "potensi_tinggi", "tingkat_keyakinan": "RENDAH", "versi_model": "loco-file-v1.0" }, "geometry": { "type": "Polygon", "coordinates": [ [ [ 106.843640975250779, -6.204561291658657 ], [ 106.843224718004649, -6.202826732440696 ], [ 106.841449772738244, -6.202390495113587 ], [ 106.840091089376372, -6.203688844055307 ], [ 106.840507371620191, -6.205423407538682 ], [ 106.842282312228647, -6.205859617815573 ], [ 106.843640975250779, -6.204561291658657 ] ] ] } },
{ "type": "Feature", "properties": { "hex_id": "898c1079d83ffff", "kawasan": "Manggarai", "kode_kawasan": "MGR", "diskor": true, "jarak_simpul_m": 1119, "menit_jalan": 15, "lat": -6.2101907197873594, "lon": 106.83998126310034, "hex_induk": "888c1079d9fffff", "pop_100m": null, "pop_usia_produktif": null, "total_luas_bangunan_m2": null, "jumlah_bangunan": null, "rasio_tutupan_bangunan": null, "risiko_banjir_indeks_mean": null, "risiko_banjir_indeks_max": null, "n_kompetitor": 0, "n_simpul_transit": 0, "n_generator_keramaian": 0, "n_poi_terpadu": 0, "zona_peruntukan": null, "izin_perdagangan": true, "zonasi_diketahui": false, "n_menu_go": 0, "n_struk_go": 0, "n_properti_go": 0, "n_activity": 0, "n_titik_survei": 0, "harga_median": null, "belanja_median": null, "skor_ramai_rata": null, "n_titik_kring": 0, "znt_rp_per_m2": null, "ridership_simpul": 57517269.0, "indeks_churn": null, "IPT": 58.33, "IAE": null, "Kompetisi": null, "Biaya_Risiko": null, "opportunity_score": 58.33, "residual_biaya": null, "iptt": 23.68, "hidden_gem_score": 43.68, "kuadran": "potensi_tinggi", "tingkat_keyakinan": "RENDAH", "versi_model": "loco-file-v1.0" }, "geometry": { "type": "Polygon", "coordinates": [ [ [ 106.841756183660948, -6.210626882965202 ], [ 106.841339918762401, -6.208892426995967 ], [ 106.839564982812846, -6.208456243767537 ], [ 106.838206316422244, -6.209754543555706 ], [ 106.838622606316505, -6.211489003783584 ], [ 106.840397537606137, -6.211925159965304 ], [ 106.841756183660948, -6.210626882965202 ] ] ] } },
{ "type": "Feature", "properties": { "hex_id": "898c1079cabffff", "kawasan": "Manggarai", "kode_kawasan": "MGR", "diskor": true, "jarak_simpul_m": 1120, "menit_jalan": 15, "lat": -6.2006765568212794, "lon": 106.85440012003417, "hex_induk": "888c1079cbfffff", "pop_100m": null, "pop_usia_produktif": null, "total_luas_bangunan_m2": null, "jumlah_bangunan": null, "rasio_tutupan_bangunan": null, "risiko_banjir_indeks_mean": null, "risiko_banjir_indeks_max": null, "n_kompetitor": 0, "n_simpul_transit": 0, "n_generator_keramaian": 0, "n_poi_terpadu": 0, "zona_peruntukan": null, "izin_perdagangan": true, "zonasi_diketahui": false, "n_menu_go": 0, "n_struk_go": 0, "n_properti_go": 0, "n_activity": 0, "n_titik_survei": 0, "harga_median": null, "belanja_median": null, "skor_ramai_rata": null, "n_titik_kring": 0, "znt_rp_per_m2": null, "ridership_simpul": 57517269.0, "indeks_churn": null, "IPT": 58.33, "IAE": null, "Kompetisi": null, "Biaya_Risiko": null, "opportunity_score": 58.33, "residual_biaya": null, "iptt": 23.68, "hidden_gem_score": 43.68, "kuadran": "potensi_tinggi", "tingkat_keyakinan": "RENDAH", "versi_model": "loco-file-v1.0" }, "geometry": { "type": "Polygon", "coordinates": [ [ [ 106.856174902408995, -6.201112749916466 ], [ 106.855758745171158, -6.199378207809527 ], [ 106.853983947402966, -6.198941994655542 ], [ 106.852625311516718, -6.200240350676004 ], [ 106.853041493759278, -6.201974897068108 ], [ 106.854816286883803, -6.202411083155221 ], [ 106.856174902408995, -6.201112749916466 ] ] ] } },
{ "type": "Feature", "properties": { "hex_id": "898c1078323ffff", "kawasan": "Manggarai", "kode_kawasan": "MGR", "diskor": true, "jarak_simpul_m": 1136, "menit_jalan": 15, "lat": -6.2175643483913552, "lon": 106.84342118543988, "hex_induk": "888c107833fffff", "pop_100m": null, "pop_usia_produktif": null, "total_luas_bangunan_m2": null, "jumlah_bangunan": null, "rasio_tutupan_bangunan": null, "risiko_banjir_indeks_mean": null, "risiko_banjir_indeks_max": null, "n_kompetitor": 0, "n_simpul_transit": 0, "n_generator_keramaian": 0, "n_poi_terpadu": 0, "zona_peruntukan": null, "izin_perdagangan": true, "zonasi_diketahui": false, "n_menu_go": 0, "n_struk_go": 0, "n_properti_go": 0, "n_activity": 0, "n_titik_survei": 0, "harga_median": null, "belanja_median": null, "skor_ramai_rata": null, "n_titik_kring": 0, "znt_rp_per_m2": null, "ridership_simpul": 57517269.0, "indeks_churn": null, "IPT": 58.33, "IAE": null, "Kompetisi": null, "Biaya_Risiko": null, "opportunity_score": 58.33, "residual_biaya": null, "iptt": 23.68, "hidden_gem_score": 43.68, "kuadran": "potensi_tinggi", "tingkat_keyakinan": "RENDAH", "versi_model": "loco-file-v1.0" }, "geometry": { "type": "Polygon", "coordinates": [ [ [ 106.845196018323591, -6.218000418297465 ], [ 106.844779791940041, -6.216266125768797 ], [ 106.843004943667268, -6.215830035807112 ], [ 106.841646326434287, -6.217128265424535 ], [ 106.842062577814161, -6.218862562211594 ], [ 106.843837421431175, -6.219298625123496 ], [ 106.845196018323591, -6.218000418297465 ] ] ] } },
{ "type": "Feature", "properties": { "hex_id": "898c10783cfffff", "kawasan": "Manggarai", "kode_kawasan": "MGR", "diskor": true, "jarak_simpul_m": 1145, "menit_jalan": 15, "lat": -6.2162860036007848, "lon": 106.85814541355261, "hex_induk": "888c10783dfffff", "pop_100m": null, "pop_usia_produktif": null, "total_luas_bangunan_m2": null, "jumlah_bangunan": null, "rasio_tutupan_bangunan": null, "risiko_banjir_indeks_mean": null, "risiko_banjir_indeks_max": null, "n_kompetitor": 0, "n_simpul_transit": 0, "n_generator_keramaian": 0, "n_poi_terpadu": 0, "zona_peruntukan": null, "izin_perdagangan": true, "zonasi_diketahui": false, "n_menu_go": 0, "n_struk_go": 0, "n_properti_go": 0, "n_activity": 0, "n_titik_survei": 0, "harga_median": null, "belanja_median": null, "skor_ramai_rata": null, "n_titik_kring": 0, "znt_rp_per_m2": null, "ridership_simpul": 57517269.0, "indeks_churn": null, "IPT": 58.33, "IAE": null, "Kompetisi": null, "Biaya_Risiko": null, "opportunity_score": 58.33, "residual_biaya": null, "iptt": 23.68, "hidden_gem_score": 43.68, "kuadran": "potensi_tinggi", "tingkat_keyakinan": "RENDAH", "versi_model": "loco-file-v1.0" }, "geometry": { "type": "Polygon", "coordinates": [ [ [ 106.859920057390042, -6.216722016127696 ], [ 106.859503952183175, -6.214987796599105 ], [ 106.857729292952982, -6.214551764005587 ], [ 106.856370743569002, -6.21584997801015 ], [ 106.856786873780038, -6.217584201818443 ], [ 106.858561528371311, -6.218020207343111 ], [ 106.859920057390042, -6.216722016127696 ] ] ] } },
{ "type": "Feature", "properties": { "hex_id": "898c1079dcbffff", "kawasan": "Manggarai", "kode_kawasan": "MGR", "diskor": true, "jarak_simpul_m": 1159, "menit_jalan": 15, "lat": -6.2002300222204312, "lon": 106.84594205988736, "hex_induk": "888c1079ddfffff", "pop_100m": null, "pop_usia_produktif": null, "total_luas_bangunan_m2": null, "jumlah_bangunan": null, "rasio_tutupan_bangunan": null, "risiko_banjir_indeks_mean": null, "risiko_banjir_indeks_max": null, "n_kompetitor": 0, "n_simpul_transit": 0, "n_generator_keramaian": 0, "n_poi_terpadu": 0, "zona_peruntukan": null, "izin_perdagangan": true, "zonasi_diketahui": false, "n_menu_go": 0, "n_struk_go": 0, "n_properti_go": 0, "n_activity": 0, "n_titik_survei": 0, "harga_median": null, "belanja_median": null, "skor_ramai_rata": null, "n_titik_kring": 0, "znt_rp_per_m2": null, "ridership_simpul": 57517269.0, "indeks_churn": null, "IPT": 58.33, "IAE": null, "Kompetisi": null, "Biaya_Risiko": null, "opportunity_score": 58.33, "residual_biaya": null, "iptt": 23.68, "hidden_gem_score": 43.68, "kuadran": "potensi_tinggi", "tingkat_keyakinan": "RENDAH", "versi_model": "loco-file-v1.0" }, "geometry": { "type": "Polygon", "coordinates": [ [ [ 106.847716957555747, -6.200666260505552 ], [ 106.847300729136762, -6.198931653948078 ], [ 106.845525816077014, -6.198495395610875 ], [ 106.844167136090093, -6.199793770887922 ], [ 106.844583389509481, -6.20152838171912 ], [ 106.846358297915856, -6.201964613000194 ], [ 106.847716957555747, -6.200666260505552 ] ] ] } },
{ "type": "Feature", "properties": { "hex_id": "898c107832fffff", "kawasan": "Manggarai", "kode_kawasan": "MGR", "diskor": true, "jarak_simpul_m": 1161, "menit_jalan": 15, "lat": -6.215393932786232, "lon": 106.84123006927304, "hex_induk": "888c107833fffff", "pop_100m": null, "pop_usia_produktif": null, "total_luas_bangunan_m2": null, "jumlah_bangunan": null, "rasio_tutupan_bangunan": null, "risiko_banjir_indeks_mean": null, "risiko_banjir_indeks_max": null, "n_kompetitor": 0, "n_simpul_transit": 0, "n_generator_keramaian": 0, "n_poi_terpadu": 0, "zona_peruntukan": null, "izin_perdagangan": true, "zonasi_diketahui": false, "n_menu_go": 0, "n_struk_go": 0, "n_properti_go": 0, "n_activity": 0, "n_titik_survei": 0, "harga_median": null, "belanja_median": null, "skor_ramai_rata": null, "n_titik_kring": 0, "znt_rp_per_m2": null, "ridership_simpul": 57517269.0, "indeks_churn": null, "IPT": 58.33, "IAE": null, "Kompetisi": null, "Biaya_Risiko": null, "opportunity_score": 58.33, "residual_biaya": null, "iptt": 23.68, "hidden_gem_score": 43.68, "kuadran": "potensi_tinggi", "tingkat_keyakinan": "RENDAH", "versi_model": "loco-file-v1.0" }, "geometry": { "type": "Polygon", "coordinates": [ [ [ 106.843004943667268, -6.215830035807112 ], [ 106.84258869611331, -6.214095687373117 ], [ 106.840813806330345, -6.213659564299045 ], [ 106.839455168760139, -6.214957816706995 ], [ 106.839871441309654, -6.216692169397827 ], [ 106.841646326434287, -6.217128265424535 ], [ 106.843004943667268, -6.215830035807112 ] ] ] } },
{ "type": "Feature", "properties": { "hex_id": "898c1079c37ffff", "kawasan": "Manggarai", "kode_kawasan": "MGR", "diskor": true, "jarak_simpul_m": 1166, "menit_jalan": 15, "lat": -6.1993678992385615, "lon": 106.84907561606519, "hex_induk": "888c1079c3fffff", "pop_100m": null, "pop_usia_produktif": null, "total_luas_bangunan_m2": null, "jumlah_bangunan": null, "rasio_tutupan_bangunan": null, "risiko_banjir_indeks_mean": null, "risiko_banjir_indeks_max": null, "n_kompetitor": 0, "n_simpul_transit": 0, "n_generator_keramaian": 0, "n_poi_terpadu": 0, "zona_peruntukan": null, "izin_perdagangan": true, "zonasi_diketahui": false, "n_menu_go": 0, "n_struk_go": 0, "n_properti_go": 0, "n_activity": 0, "n_titik_survei": 0, "harga_median": null, "belanja_median": null, "skor_ramai_rata": null, "n_titik_kring": 0, "znt_rp_per_m2": null, "ridership_simpul": 57517269.0, "indeks_churn": null, "IPT": 58.33, "IAE": null, "Kompetisi": null, "Biaya_Risiko": null, "opportunity_score": 58.33, "residual_biaya": null, "iptt": 23.68, "hidden_gem_score": 43.68, "kuadran": "potensi_tinggi", "tingkat_keyakinan": "RENDAH", "versi_model": "loco-file-v1.0" }, "geometry": { "type": "Polygon", "coordinates": [ [ [ 106.850850476859449, -6.199804131481486 ], [ 106.85043427344263, -6.198069529202678 ], [ 106.848659397256156, -6.197633276905505 ], [ 106.847300729136762, -6.198931653948078 ], [ 106.847716957555747, -6.200666260505552 ], [ 106.849491829092415, -6.201102485742421 ], [ 106.850850476859449, -6.199804131481486 ] ] ] } }
]
}
