{
"type": "FeatureCollection",
"name": "radar_risiko",
"crs": { "type": "name", "properties": { "name": "urn:ogc:def:crs:OGC:1.3:CRS84" } },
"features": [
{ "type": "Feature", "properties": { "hex_id": "898c1070097ffff", "kawasan": "Depok Baru", "indeks_churn": null, "n_properti_go": 0, "n_menu_go": 0, "n_kompetitor": 0, "Biaya_Risiko": null, "kuadran": "potensi_rendah", "izin_perdagangan": true, "zonasi_diketahui": false }, "geometry": { "type": "Polygon", "coordinates": [ [ [ 106.825322040405538, -6.39249162867636 ], [ 106.824905880644593, -6.390760549380981 ], [ 106.823131758551582, -6.390326181914771 ], [ 106.821773800893283, -6.391622920736604 ], [ 106.82218998561234, -6.393354004143998 ], [ 106.823964103032054, -6.393788344618196 ], [ 106.825322040405538, -6.39249162867636 ] ] ] } },
{ "type": "Feature", "properties": { "hex_id": "898c107837bffff", "kawasan": "Manggarai", "indeks_churn": null, "n_properti_go": 0, "n_menu_go": 0, "n_kompetitor": 0, "Biaya_Risiko": null, "kuadran": "potensi_tinggi", "izin_perdagangan": true, "zonasi_diketahui": false }, "geometry": { "type": "Polygon", "coordinates": [ [ [ 106.853347575946671, -6.210210992640937 ], [ 106.852931407219103, -6.20847660537767 ], [ 106.851156623384881, -6.208040473419049 ], [ 106.849798012925334, -6.209338755785961 ], [ 106.850214206654726, -6.211073147324255 ], [ 106.851988985842297, -6.211509252221254 ], [ 106.853347575946671, -6.210210992640937 ] ] ] } },
{ "type": "Feature", "properties": { "hex_id": "898c1078363ffff", "kawasan": "Manggarai", "indeks_churn": null, "n_properti_go": 0, "n_menu_go": 0, "n_kompetitor": 0, "Biaya_Risiko": null, "kuadran": "potensi_tinggi", "izin_perdagangan": true, "zonasi_diketahui": false }, "geometry": { "type": "Polygon", "coordinates": [ [ [ 106.850214206654726, -6.211073147324255 ], [ 106.849798012925334, -6.209338755785961 ], [ 106.848023192212736, -6.208902617774317 ], [ 106.846664569880176, -6.210200898359068 ], [ 106.847080788609588, -6.211935294167445 ], [ 106.848855604671996, -6.212371405121632 ], [ 106.850214206654726, -6.211073147324255 ] ] ] } },
{ "type": "Feature", "properties": { "hex_id": "898c1070087ffff", "kawasan": "Depok Baru", "indeks_churn": null, "n_properti_go": 0, "n_menu_go": 0, "n_kompetitor": 0, "Biaya_Risiko": null, "kuadran": "potensi_rendah", "izin_perdagangan": true, "zonasi_diketahui": false }, "geometry": { "type": "Polygon", "coordinates": [ [ [ 106.823131758551582, -6.390326181914771 ], [ 106.822715577648111, -6.388595046451492 ], [ 106.820941414128555, -6.388160645698938 ], [ 106.819583436188807, -6.389457407399944 ], [ 106.819999642049609, -6.391188546973678 ], [ 106.821773800893283, -6.391622920736604 ], [ 106.823131758551582, -6.390326181914771 ] ] ] } },
{ "type": "Feature", "properties": { "hex_id": "898c107836bffff", "kawasan": "Manggarai", "indeks_churn": null, "n_properti_go": 0, "n_menu_go": 0, "n_kompetitor": 0, "Biaya_Risiko": null, "kuadran": "potensi_tinggi", "izin_perdagangan": true, "zonasi_diketahui": false }, "geometry": { "type": "Polygon", "coordinates": [ [ [ 106.851156623384881, -6.208040473419049 ], [ 106.850740433484091, -6.206306030255412 ], [ 106.848965608122271, -6.205869865184568 ], [ 106.847606977310932, -6.207168170337221 ], [ 106.848023192212736, -6.208902617774317 ], [ 106.849798012925334, -6.209338755785961 ], [ 106.851156623384881, -6.208040473419049 ] ] ] } },
{ "type": "Feature", "properties": { "hex_id": "898c107054bffff", "kawasan": "Depok Baru", "indeks_churn": null, "n_properti_go": 0, "n_menu_go": 0, "n_kompetitor": 0, "Biaya_Risiko": null, "kuadran": "potensi_rendah", "izin_perdagangan": true, "zonasi_diketahui": false }, "geometry": { "type": "Polygon", "coordinates": [ [ [ 106.82218998561234, -6.393354004143998 ], [ 106.821773800893283, -6.391622920736604 ], [ 106.819999642049609, -6.391188546973678 ], [ 106.818641672602354, -6.392485283606629 ], [ 106.819057882277789, -6.394216371121106 ], [ 106.820832036444585, -6.394650717896193 ], [ 106.82218998561234, -6.393354004143998 ] ] ] } },
{ "type": "Feature", "properties": { "hex_id": "898c1078373ffff", "kawasan": "Manggarai", "indeks_churn": null, "n_properti_go": 0, "n_menu_go": 0, "n_kompetitor": 0, "Biaya_Risiko": null, "kuadran": "potensi_tinggi", "izin_perdagangan": true, "zonasi_diketahui": false }, "geometry": { "type": "Polygon", "coordinates": [ [ [ 106.852405158399065, -6.213243587855133 ], [ 106.851988985842297, -6.211509252221254 ], [ 106.850214206654726, -6.211073147324255 ], [ 106.848855604671996, -6.212371405121632 ], [ 106.849271802229595, -6.214105745027156 ], [ 106.851046576769548, -6.214541822864293 ], [ 106.852405158399065, -6.213243587855133 ] ] ] } },
{ "type": "Feature", "properties": { "hex_id": "898c1070083ffff", "kawasan": "Depok Baru", "indeks_churn": null, "n_properti_go": 0, "n_menu_go": 0, "n_kompetitor": 0, "Biaya_Risiko": null, "kuadran": "potensi_rendah", "izin_perdagangan": true, "zonasi_diketahui": false }, "geometry": { "type": "Polygon", "coordinates": [ [ [ 106.826263826506008, -6.389463808377025 ], [ 106.825847670561643, -6.387732677029103 ], [ 106.824073543796302, -6.387298282569117 ], [ 106.822715577648111, -6.388595046451492 ], [ 106.823131758551582, -6.390326181914771 ], [ 106.824905880644593, -6.390760549380981 ], [ 106.826263826506008, -6.389463808377025 ] ] ] } },
{ "type": "Feature", "properties": { "hex_id": "898c107055bffff", "kawasan": "Depok Baru", "indeks_churn": null, "n_properti_go": 0, "n_menu_go": 0, "n_kompetitor": 0, "Biaya_Risiko": null, "kuadran": "potensi_rendah", "izin_perdagangan": true, "zonasi_diketahui": false }, "geometry": { "type": "Polygon", "coordinates": [ [ [ 106.824380266609211, -6.395519371853727 ], [ 106.823964103032054, -6.393788344618196 ], [ 106.82218998561234, -6.393354004143998 ], [ 106.820832036444585, -6.394650717896193 ], [ 106.821248224978916, -6.396381749240361 ], [ 106.823022337724296, -6.396816062724334 ], [ 106.824380266609211, -6.395519371853727 ] ] ] } },
{ "type": "Feature", "properties": { "hex_id": "898c1079cb7ffff", "kawasan": "Manggarai", "indeks_churn": null, "n_properti_go": 0, "n_menu_go": 0, "n_kompetitor": 0, "Biaya_Risiko": null, "kuadran": "potensi_tinggi", "izin_perdagangan": true, "zonasi_diketahui": false }, "geometry": { "type": "Polygon", "coordinates": [ [ [ 106.854290005797722, -6.207178321235371 ], [ 106.853873840899695, -6.205443882350131 ], [ 106.852099052419831, -6.205007723328142 ], [ 106.850740433484091, -6.206306030255412 ], [ 106.851156623384881, -6.208040473419049 ], [ 106.852931407219103, -6.20847660537767 ], [ 106.854290005797722, -6.207178321235371 ] ] ] } },
{ "type": "Feature", "properties": { "hex_id": "898c107836fffff", "kawasan": "Manggarai", "indeks_churn": null, "n_properti_go": 0, "n_menu_go": 0, "n_kompetitor": 0, "Biaya_Risiko": null, "kuadran": "potensi_tinggi", "izin_perdagangan": true, "zonasi_diketahui": false }, "geometry": { "type": "Polygon", "coordinates": [ [ [ 106.848023192212736, -6.208902617774317 ], [ 106.847606977310932, -6.207168170337221 ], [ 106.84583211507686, -6.206731999215677 ], [ 106.844473472397837, -6.208030302586939 ], [ 106.84488971229888, -6.209764754292572 ], [ 106.846664569880176, -6.210200898359068 ], [ 106.848023192212736, -6.208902617774317 ] ] ] } },
{ "type": "Feature", "properties": { "hex_id": "898c1070093ffff", "kawasan": "Depok Baru", "indeks_churn": null, "n_properti_go": 0, "n_menu_go": 0, "n_kompetitor": 0, "Biaya_Risiko": null, "kuadran": "potensi_rendah", "izin_perdagangan": true, "zonasi_diketahui": false }, "geometry": { "type": "Polygon", "coordinates": [ [ [ 106.828454046639735, -6.391629244726833 ], [ 106.828037911838692, -6.389898169548361 ], [ 106.826263826506008, -6.389463808377025 ], [ 106.824905880644593, -6.390760549380981 ], [ 106.825322040405538, -6.39249162867636 ], [ 106.827096121068465, -6.392925962851534 ], [ 106.828454046639735, -6.391629244726833 ] ] ] } },
{ "type": "Feature", "properties": { "hex_id": "898c107042fffff", "kawasan": "Depok Baru", "indeks_churn": null, "n_properti_go": 0, "n_menu_go": 0, "n_kompetitor": 0, "Biaya_Risiko": null, "kuadran": "potensi_rendah", "izin_perdagangan": true, "zonasi_diketahui": false }, "geometry": { "type": "Polygon", "coordinates": [ [ [ 106.827512259686713, -6.394656985973515 ], [ 106.827096121068465, -6.392925962851534 ], [ 106.825322040405538, -6.39249162867636 ], [ 106.823964103032054, -6.393788344618196 ], [ 106.824380266609211, -6.395519371853727 ], [ 106.826154342601399, -6.395953679034518 ], [ 106.827512259686713, -6.394656985973515 ] ] ] } },
{ "type": "Feature", "properties": { "hex_id": "898c1078347ffff", "kawasan": "Manggarai", "indeks_churn": null, "n_properti_go": 0, "n_menu_go": 0, "n_kompetitor": 0, "Biaya_Risiko": null, "kuadran": "potensi_tinggi", "izin_perdagangan": true, "zonasi_diketahui": false }, "geometry": { "type": "Polygon", "coordinates": [ [ [ 106.855538465803946, -6.212381422839887 ], [ 106.855122318249769, -6.210647091482594 ], [ 106.853347575946671, -6.210210992640937 ], [ 106.851988985842297, -6.211509252221254 ], [ 106.852405158399065, -6.213243587855133 ], [ 106.854179896058099, -6.213679659632762 ], [ 106.855538465803946, -6.212381422839887 ] ] ] } },
{ "type": "Feature", "properties": { "hex_id": "898c10700b3ffff", "kawasan": "Depok Baru", "indeks_churn": null, "n_properti_go": 0, "n_menu_go": 0, "n_kompetitor": 0, "Biaya_Risiko": null, "kuadran": "potensi_rendah", "izin_perdagangan": true, "zonasi_diketahui": false }, "geometry": { "type": "Polygon", "coordinates": [ [ [ 106.819999642049609, -6.391188546973678 ], [ 106.819583436188807, -6.389457407399944 ], [ 106.817809235924699, -6.389023000352973 ], [ 106.816451246201311, -6.390319759865847 ], [ 106.816867477017695, -6.392050903545118 ], [ 106.818641672602354, -6.392485283606629 ], [ 106.819999642049609, -6.391188546973678 ] ] ] } },
{ "type": "Feature", "properties": { "hex_id": "898c107008fffff", "kawasan": "Depok Baru", "indeks_churn": null, "n_properti_go": 0, "n_menu_go": 0, "n_kompetitor": 0, "Biaya_Risiko": null, "kuadran": "potensi_rendah", "izin_perdagangan": true, "zonasi_diketahui": false }, "geometry": { "type": "Polygon", "coordinates": [ [ [ 106.824073543796302, -6.387298282569117 ], [ 106.823657366708801, -6.385567095057257 ], [ 106.821883198514342, -6.385132667313314 ], [ 106.820525212082742, -6.386429454073269 ], [ 106.820941414128555, -6.388160645698938 ], [ 106.822715577648111, -6.388595046451492 ], [ 106.824073543796302, -6.387298282569117 ] ] ] } },
{ "type": "Feature", "properties": { "hex_id": "898c1078377ffff", "kawasan": "Manggarai", "indeks_churn": null, "n_properti_go": 0, "n_menu_go": 0, "n_kompetitor": 0, "Biaya_Risiko": null, "kuadran": "potensi_tinggi", "izin_perdagangan": true, "zonasi_diketahui": false }, "geometry": { "type": "Polygon", "coordinates": [ [ [ 106.849271802229595, -6.214105745027156 ], [ 106.848855604671996, -6.212371405121632 ], [ 106.847080788609588, -6.211935294167445 ], [ 106.84572217475646, -6.21323355017512 ], [ 106.846138397313126, -6.214967894347361 ], [ 106.847913208724336, -6.215403978245849 ], [ 106.849271802229595, -6.214105745027156 ] ] ] } },
{ "type": "Feature", "properties": { "hex_id": "898c107834fffff", "kawasan": "Manggarai", "indeks_churn": null, "n_properti_go": 0, "n_menu_go": 0, "n_kompetitor": 0, "Biaya_Risiko": null, "kuadran": "potensi_tinggi", "izin_perdagangan": true, "zonasi_diketahui": false }, "geometry": { "type": "Polygon", "coordinates": [ [ [ 106.856480896467886, -6.209348830126118 ], [ 106.856064752743862, -6.207614447142813 ], [ 106.854290005797722, -6.207178321235371 ], [ 106.852931407219103, -6.20847660537767 ], [ 106.853347575946671, -6.210210992640937 ], [ 106.855122318249769, -6.210647091482594 ], [ 106.856480896467886, -6.209348830126118 ] ] ] } },
{ "type": "Feature", "properties": { "hex_id": "898c1078367ffff", "kawasan": "Manggarai", "indeks_churn": null, "n_properti_go": 0, "n_menu_go": 0, "n_kompetitor": 0, "Biaya_Risiko": null, "kuadran": "potensi_tinggi", "izin_perdagangan": true, "zonasi_diketahui": false }, "geometry": { "type": "Polygon", "coordinates": [ [ [ 106.847080788609588, -6.211935294167445 ], [ 106.846664569880176, -6.210200898359068 ], [ 106.84488971229888, -6.209764754292572 ], [ 106.84353107810125, -6.211063033088389 ], [ 106.843947321828949, -6.212797433161916 ], [ 106.84572217475646, -6.21323355017512 ], [ 106.847080788609588, -6.211935294167445 ] ] ] } },
{ "type": "Feature", "properties": { "hex_id": "898c10700bbffff", "kawasan": "Depok Baru", "indeks_churn": null, "n_properti_go": 0, "n_menu_go": 0, "n_kompetitor": 0, "Biaya_Risiko": null, "kuadran": "potensi_rendah", "izin_perdagangan": true, "zonasi_diketahui": false }, "geometry": { "type": "Polygon", "coordinates": [ [ [ 106.820941414128555, -6.388160645698938 ], [ 106.820525212082742, -6.386429454073269 ], [ 106.818751007140193, -6.385995020039063 ], [ 106.817393008922352, -6.387291804618409 ], [ 106.817809235924699, -6.389023000352973 ], [ 106.819583436188807, -6.389457407399944 ], [ 106.820941414128555, -6.388160645698938 ] ] ] } },
{ "type": "Feature", "properties": { "hex_id": "898c1079dd3ffff", "kawasan": "Manggarai", "indeks_churn": null, "n_properti_go": 0, "n_menu_go": 0, "n_kompetitor": 0, "Biaya_Risiko": null, "kuadran": "potensi_tinggi", "izin_perdagangan": true, "zonasi_diketahui": false }, "geometry": { "type": "Polygon", "coordinates": [ [ [ 106.848965608122271, -6.205869865184568 ], [ 106.84854939704843, -6.204135366126132 ], [ 106.846774530162563, -6.203699167947813 ], [ 106.845415879002786, -6.204997495885348 ], [ 106.84583211507686, -6.206731999215677 ], [ 106.847606977310932, -6.207168170337221 ], [ 106.848965608122271, -6.205869865184568 ] ] ] } },
{ "type": "Feature", "properties": { "hex_id": "898c1079ca7ffff", "kawasan": "Manggarai", "indeks_churn": null, "n_properti_go": 0, "n_menu_go": 0, "n_kompetitor": 0, "Biaya_Risiko": null, "kuadran": "potensi_tinggi", "izin_perdagangan": true, "zonasi_diketahui": false }, "geometry": { "type": "Polygon", "coordinates": [ [ [ 106.852099052419831, -6.205007723328142 ], [ 106.851682866347971, -6.203273228546556 ], [ 106.849908036337936, -6.202837036414754 ], [ 106.84854939704843, -6.204135366126132 ], [ 106.848965608122271, -6.205869865184568 ], [ 106.850740433484091, -6.206306030255412 ], [ 106.852099052419831, -6.205007723328142 ] ] ] } },
{ "type": "Feature", "properties": { "hex_id": "898c1070543ffff", "kawasan": "Depok Baru", "indeks_churn": null, "n_properti_go": 0, "n_menu_go": 0, "n_kompetitor": 0, "Biaya_Risiko": null, "kuadran": "potensi_rendah", "izin_perdagangan": true, "zonasi_diketahui": false }, "geometry": { "type": "Polygon", "coordinates": [ [ [ 106.821248224978916, -6.396381749240361 ], [ 106.820832036444585, -6.394650717896193 ], [ 106.819057882277789, -6.394216371121106 ], [ 106.817699921323623, -6.395513082676904 ], [ 106.818116134813351, -6.397244118124812 ], [ 106.819890284302275, -6.397678437913831 ], [ 106.821248224978916, -6.396381749240361 ] ] ] } },
{ "type": "Feature", "properties": { "hex_id": "898c107054fffff", "kawasan": "Depok Baru", "indeks_churn": null, "n_properti_go": 0, "n_menu_go": 0, "n_kompetitor": 0, "Biaya_Risiko": null, "kuadran": "potensi_rendah", "izin_perdagangan": true, "zonasi_diketahui": false }, "geometry": { "type": "Polygon", "coordinates": [ [ [ 106.819057882277789, -6.394216371121106 ], [ 106.818641672602354, -6.392485283606629 ], [ 106.816867477017695, -6.392050903545118 ], [ 106.815509495789385, -6.393347637982429 ], [ 106.815925730419423, -6.395078729599081 ], [ 106.817699921323623, -6.395513082676904 ], [ 106.819057882277789, -6.394216371121106 ] ] ] } },
{ "type": "Feature", "properties": { "hex_id": "898c107830bffff", "kawasan": "Manggarai", "indeks_churn": null, "n_properti_go": 0, "n_menu_go": 0, "n_kompetitor": 0, "Biaya_Risiko": null, "kuadran": "potensi_tinggi", "izin_perdagangan": true, "zonasi_diketahui": false }, "geometry": { "type": "Polygon", "coordinates": [ [ [ 106.854596047442087, -6.21541393935663 ], [ 106.854179896058099, -6.213679659632762 ], [ 106.852405158399065, -6.213243587855133 ], [ 106.851046576769548, -6.214541822864293 ], [ 106.851462753155147, -6.21627610686137 ], [ 106.853237486169121, -6.216712151576727 ], [ 106.854596047442087, -6.21541393935663 ] ] ] } },
{ "type": "Feature", "properties": { "hex_id": "898c107009bffff", "kawasan": "Depok Baru", "indeks_churn": null, "n_properti_go": 0, "n_menu_go": 0, "n_kompetitor": 0, "Biaya_Risiko": null, "kuadran": "potensi_rendah", "izin_perdagangan": true, "zonasi_diketahui": false }, "geometry": { "type": "Polygon", "coordinates": [ [ [ 106.829395845895306, -6.388601426369056 ], [ 106.82897971491181, -6.386870299141399 ], [ 106.827205624910363, -6.386435910972129 ], [ 106.825847670561643, -6.387732677029103 ], [ 106.826263826506008, -6.389463808377025 ], [ 106.828037911838692, -6.389898169548361 ], [ 106.829395845895306, -6.388601426369056 ] ] ] } },
{ "type": "Feature", "properties": { "hex_id": "898c107830fffff", "kawasan": "Manggarai", "indeks_churn": null, "n_properti_go": 0, "n_menu_go": 0, "n_kompetitor": 0, "Biaya_Risiko": null, "kuadran": "potensi_tinggi", "izin_perdagangan": true, "zonasi_diketahui": false }, "geometry": { "type": "Polygon", "coordinates": [ [ [ 106.851462753155147, -6.21627610686137 ], [ 106.851046576769548, -6.214541822864293 ], [ 106.849271802229595, -6.214105745027156 ], [ 106.847913208724336, -6.215403978245849 ], [ 106.848329410109784, -6.217138266511182 ], [ 106.850104180001111, -6.217574317290217 ], [ 106.851462753155147, -6.21627610686137 ] ] ] } },
{ "type": "Feature", "properties": { "hex_id": "898c1070427ffff", "kawasan": "Depok Baru", "indeks_churn": null, "n_properti_go": 0, "n_menu_go": 0, "n_kompetitor": 0, "Biaya_Risiko": null, "kuadran": "potensi_rendah", "izin_perdagangan": true, "zonasi_diketahui": false }, "geometry": { "type": "Polygon", "coordinates": [ [ [ 106.826570485036484, -6.39768465009267 ], [ 106.826154342601399, -6.395953679034518 ], [ 106.824380266609211, -6.395519371853727 ], [ 106.823022337724296, -6.396816062724334 ], [ 106.823438505117309, -6.398547037892685 ], [ 106.825212576437778, -6.39898131808087 ], [ 106.826570485036484, -6.39768465009267 ] ] ] } },
{ "type": "Feature", "properties": { "hex_id": "898c107008bffff", "kawasan": "Depok Baru", "indeks_churn": null, "n_properti_go": 0, "n_menu_go": 0, "n_kompetitor": 0, "Biaya_Risiko": null, "kuadran": "potensi_rendah", "izin_perdagangan": true, "zonasi_diketahui": false }, "geometry": { "type": "Polygon", "coordinates": [ [ [ 106.827205624910363, -6.386435910972129 ], [ 106.826789472782934, -6.384704727578981 ], [ 106.825015341346258, -6.384270306123452 ], [ 106.823657366708801, -6.385567095057257 ], [ 106.824073543796302, -6.387298282569117 ], [ 106.825847670561643, -6.387732677029103 ], [ 106.827205624910363, -6.386435910972129 ] ] ] } },
{ "type": "Feature", "properties": { "hex_id": "898c107042bffff", "kawasan": "Depok Baru", "indeks_churn": null, "n_properti_go": 0, "n_menu_go": 0, "n_kompetitor": 0, "Biaya_Risiko": null, "kuadran": "potensi_rendah", "izin_perdagangan": true, "zonasi_diketahui": false }, "geometry": { "type": "Polygon", "coordinates": [ [ [ 106.830644204193788, -6.393794591608366 ], [ 106.83022809053621, -6.392063572604846 ], [ 106.828454046639735, -6.391629244726833 ], [ 106.827096121068465, -6.392925962851534 ], [ 106.827512259686713, -6.394656985973515 ], [ 106.829286298916003, -6.395091286852981 ], [ 106.830644204193788, -6.393794591608366 ] ] ] } },
{ "type": "Feature", "properties": { "hex_id": "898c1070553ffff", "kawasan": "Depok Baru", "indeks_churn": null, "n_properti_go": 0, "n_menu_go": 0, "n_kompetitor": 0, "Biaya_Risiko": null, "kuadran": "potensi_rendah", "izin_perdagangan": true, "zonasi_diketahui": false }, "geometry": { "type": "Polygon", "coordinates": [ [ [ 106.823438505117309, -6.398547037892685 ], [ 106.823022337724296, -6.396816062724334 ], [ 106.821248224978916, -6.396381749240361 ], [ 106.819890284302275, -6.397678437913831 ], [ 106.820306476651481, -6.399409417187452 ], [ 106.822080584721604, -6.399843703682991 ], [ 106.823438505117309, -6.398547037892685 ] ] ] } },
{ "type": "Feature", "properties": { "hex_id": "898c1079cb3ffff", "kawasan": "Manggarai", "indeks_churn": null, "n_properti_go": 0, "n_menu_go": 0, "n_kompetitor": 0, "Biaya_Risiko": null, "kuadran": "potensi_tinggi", "izin_perdagangan": true, "zonasi_diketahui": false }, "geometry": { "type": "Polygon", "coordinates": [ [ [ 106.857423339433623, -6.206316161231891 ], [ 106.857007199540149, -6.204581726629996 ], [ 106.855232447951906, -6.20414557365502 ], [ 106.853873840899695, -6.205443882350131 ], [ 106.854290005797722, -6.207178321235371 ], [ 106.856064752743862, -6.207614447142813 ], [ 106.857423339433623, -6.206316161231891 ] ] ] } },
{ "type": "Feature", "properties": { "hex_id": "898c1078343ffff", "kawasan": "Manggarai", "indeks_churn": null, "n_properti_go": 0, "n_menu_go": 0, "n_kompetitor": 0, "Biaya_Risiko": null, "kuadran": "potensi_tinggi", "izin_perdagangan": true, "zonasi_diketahui": false }, "geometry": { "type": "Polygon", "coordinates": [ [ [ 106.858671724426628, -6.211519249990046 ], [ 106.858255601876792, -6.209784922914258 ], [ 106.856480896467886, -6.209348830126118 ], [ 106.855122318249769, -6.210647091482594 ], [ 106.855538465803946, -6.212381422839887 ], [ 106.857313166572354, -6.21281748855984 ], [ 106.858671724426628, -6.211519249990046 ] ] ] } },
{ "type": "Feature", "properties": { "hex_id": "898c1079ca3ffff", "kawasan": "Manggarai", "indeks_churn": null, "n_properti_go": 0, "n_menu_go": 0, "n_kompetitor": 0, "Biaya_Risiko": null, "kuadran": "potensi_tinggi", "izin_perdagangan": true, "zonasi_diketahui": false }, "geometry": { "type": "Polygon", "coordinates": [ [ [ 106.855232447951906, -6.20414557365502 ], [ 106.854816286883803, -6.202411083155221 ], [ 106.853041493759278, -6.201974897068108 ], [ 106.851682866347971, -6.203273228546556 ], [ 106.852099052419831, -6.205007723328142 ], [ 106.853873840899695, -6.205443882350131 ], [ 106.855232447951906, -6.20414557365502 ] ] ] } },
{ "type": "Feature", "properties": { "hex_id": "898c1079dd7ffff", "kawasan": "Manggarai", "indeks_churn": null, "n_properti_go": 0, "n_menu_go": 0, "n_kompetitor": 0, "Biaya_Risiko": null, "kuadran": "potensi_tinggi", "izin_perdagangan": true, "zonasi_diketahui": false }, "geometry": { "type": "Polygon", "coordinates": [ [ [ 106.84583211507686, -6.206731999215677 ], [ 106.845415879002786, -6.204997495885348 ], [ 106.843640975250779, -6.204561291658657 ], [ 106.842282312228647, -6.205859617815573 ], [ 106.842698573301192, -6.207594125412873 ], [ 106.844473472397837, -6.208030302586939 ], [ 106.84583211507686, -6.206731999215677 ] ] ] } },
{ "type": "Feature", "properties": { "hex_id": "898c1079d9bffff", "kawasan": "Manggarai", "indeks_churn": null, "n_properti_go": 0, "n_menu_go": 0, "n_kompetitor": 0, "Biaya_Risiko": null, "kuadran": "potensi_tinggi", "izin_perdagangan": true, "zonasi_diketahui": false }, "geometry": { "type": "Polygon", "coordinates": [ [ [ 106.84488971229888, -6.209764754292572 ], [ 106.844473472397837, -6.208030302586939 ], [ 106.842698573301192, -6.207594125412873 ], [ 106.841339918762401, -6.208892426995967 ], [ 106.841756183660948, -6.210626882965202 ], [ 106.84353107810125, -6.211063033088389 ], [ 106.84488971229888, -6.209764754292572 ] ] ] } },
{ "type": "Feature", "properties": { "hex_id": "898c10700a3ffff", "kawasan": "Depok Baru", "indeks_churn": null, "n_properti_go": 0, "n_menu_go": 0, "n_kompetitor": 0, "Biaya_Risiko": null, "kuadran": "potensi_rendah", "izin_perdagangan": true, "zonasi_diketahui": false }, "geometry": { "type": "Polygon", "coordinates": [ [ [ 106.817809235924699, -6.389023000352973 ], [ 106.817393008922352, -6.387291804618409 ], [ 106.815618767241375, -6.386857364292071 ], [ 106.814260757245222, -6.388154146684045 ], [ 106.81467700920237, -6.389885346522601 ], [ 106.816451246201311, -6.390319759865847 ], [ 106.817809235924699, -6.389023000352973 ] ] ] } },
{ "type": "Feature", "properties": { "hex_id": "898c1070423ffff", "kawasan": "Depok Baru", "indeks_churn": null, "n_properti_go": 0, "n_menu_go": 0, "n_kompetitor": 0, "Biaya_Risiko": null, "kuadran": "potensi_rendah", "izin_perdagangan": true, "zonasi_diketahui": false }, "geometry": { "type": "Polygon", "coordinates": [ [ [ 106.82970241639137, -6.396822253796039 ], [ 106.829286298916003, -6.395091286852981 ], [ 106.827512259686713, -6.394656985973515 ], [ 106.826154342601399, -6.395953679034518 ], [ 106.826570485036484, -6.39768465009267 ], [ 106.828344519597607, -6.398118923975373 ], [ 106.82970241639137, -6.396822253796039 ] ] ] } },
{ "type": "Feature", "properties": { "hex_id": "898c1070017ffff", "kawasan": "Depok Baru", "indeks_churn": null, "n_properti_go": 0, "n_menu_go": 0, "n_kompetitor": 0, "Biaya_Risiko": null, "kuadran": "potensi_rendah", "izin_perdagangan": true, "zonasi_diketahui": false }, "geometry": { "type": "Polygon", "coordinates": [ [ [ 106.821883198514342, -6.385132667313314 ], [ 106.821467000283889, -6.383401423643033 ], [ 106.819692790663865, -6.382966962619816 ], [ 106.81833478395221, -6.384263772256523 ], [ 106.818751007140193, -6.385995020039063 ], [ 106.820525212082742, -6.386429454073269 ], [ 106.821883198514342, -6.385132667313314 ] ] ] } },
{ "type": "Feature", "properties": { "hex_id": "898c1078357ffff", "kawasan": "Manggarai", "indeks_churn": null, "n_properti_go": 0, "n_menu_go": 0, "n_kompetitor": 0, "Biaya_Risiko": null, "kuadran": "potensi_tinggi", "izin_perdagangan": true, "zonasi_diketahui": false }, "geometry": { "type": "Polygon", "coordinates": [ [ [ 106.857729292952982, -6.214551764005587 ], [ 106.857313166572354, -6.21281748855984 ], [ 106.855538465803946, -6.212381422839887 ], [ 106.854179896058099, -6.213679659632762 ], [ 106.854596047442087, -6.21541393935663 ], [ 106.856370743569002, -6.21584997801015 ], [ 106.857729292952982, -6.214551764005587 ] ] ] } },
{ "type": "Feature", "properties": { "hex_id": "898c1070467ffff", "kawasan": "Depok Baru", "indeks_churn": null, "n_properti_go": 0, "n_menu_go": 0, "n_kompetitor": 0, "Biaya_Risiko": null, "kuadran": "potensi_rendah", "izin_perdagangan": true, "zonasi_diketahui": false }, "geometry": { "type": "Polygon", "coordinates": [ [ [ 106.831586004297378, -6.390766852304041 ], [ 106.831169894457972, -6.389035781247382 ], [ 106.829395845895306, -6.388601426369056 ], [ 106.828037911838692, -6.389898169548361 ], [ 106.828454046639735, -6.391629244726833 ], [ 106.83022809053621, -6.392063572604846 ], [ 106.831586004297378, -6.390766852304041 ] ] ] } },
{ "type": "Feature", "properties": { "hex_id": "898c107832bffff", "kawasan": "Manggarai", "indeks_churn": null, "n_properti_go": 0, "n_menu_go": 0, "n_kompetitor": 0, "Biaya_Risiko": null, "kuadran": "potensi_tinggi", "izin_perdagangan": true, "zonasi_diketahui": false }, "geometry": { "type": "Polygon", "coordinates": [ [ [ 106.846138397313126, -6.214967894347361 ], [ 106.84572217475646, -6.21323355017512 ], [ 106.843947321828949, -6.212797433161916 ], [ 106.84258869611331, -6.214095687373117 ], [ 106.843004943667268, -6.215830035807112 ], [ 106.844779791940041, -6.216266125768797 ], [ 106.846138397313126, -6.214967894347361 ] ] ] } },
{ "type": "Feature", "properties": { "hex_id": "898c10700b7ffff", "kawasan": "Depok Baru", "indeks_churn": null, "n_properti_go": 0, "n_menu_go": 0, "n_kompetitor": 0, "Biaya_Risiko": null, "kuadran": "potensi_rendah", "izin_perdagangan": true, "zonasi_diketahui": false }, "geometry": { "type": "Polygon", "coordinates": [ [ [ 106.816867477017695, -6.392050903545118 ], [ 106.816451246201311, -6.390319759865847 ], [ 106.81467700920237, -6.389885346522601 ], [ 106.813319007703257, -6.391182103840571 ], [ 106.813735263473433, -6.392913251620476 ], [ 106.815509495789385, -6.393347637982429 ], [ 106.816867477017695, -6.392050903545118 ] ] ] } },
{ "type": "Feature", "properties": { "hex_id": "898c1079ddbffff", "kawasan": "Manggarai", "indeks_churn": null, "n_properti_go": 0, "n_menu_go": 0, "n_kompetitor": 0, "Biaya_Risiko": null, "kuadran": "potensi_tinggi", "izin_perdagangan": true, "zonasi_diketahui": false }, "geometry": { "type": "Polygon", "coordinates": [ [ [ 106.849908036337936, -6.202837036414754 ], [ 106.849491829092415, -6.201102485742421 ], [ 106.847716957555747, -6.200666260505552 ], [ 106.846358297915856, -6.201964613000194 ], [ 106.846774530162563, -6.203699167947813 ], [ 106.84854939704843, -6.204135366126132 ], [ 106.849908036337936, -6.202837036414754 ] ] ] } },
{ "type": "Feature", "properties": { "hex_id": "898c1070013ffff", "kawasan": "Depok Baru", "indeks_churn": null, "n_properti_go": 0, "n_menu_go": 0, "n_kompetitor": 0, "Biaya_Risiko": null, "kuadran": "potensi_rendah", "izin_perdagangan": true, "zonasi_diketahui": false }, "geometry": { "type": "Polygon", "coordinates": [ [ [ 106.825015341346258, -6.384270306123452 ], [ 106.824599168075096, -6.382539066570347 ], [ 106.822824995206716, -6.382104611833225 ], [ 106.821467000283889, -6.383401423643033 ], [ 106.821883198514342, -6.385132667313314 ], [ 106.823657366708801, -6.385567095057257 ], [ 106.825015341346258, -6.384270306123452 ] ] ] } },
{ "type": "Feature", "properties": { "hex_id": "898c107833bffff", "kawasan": "Manggarai", "indeks_churn": null, "n_properti_go": 0, "n_menu_go": 0, "n_kompetitor": 0, "Biaya_Risiko": null, "kuadran": "potensi_tinggi", "izin_perdagangan": true, "zonasi_diketahui": false }, "geometry": { "type": "Polygon", "coordinates": [ [ [ 106.848329410109784, -6.217138266511182 ], [ 106.847913208724336, -6.215403978245849 ], [ 106.846138397313126, -6.214967894347361 ], [ 106.844779791940041, -6.216266125768797 ], [ 106.845196018323591, -6.218000418297465 ], [ 106.846970825082593, -6.218436475142008 ], [ 106.848329410109784, -6.217138266511182 ] ] ] } },
{ "type": "Feature", "properties": { "hex_id": "898c107834bffff", "kawasan": "Manggarai", "indeks_churn": null, "n_properti_go": 0, "n_menu_go": 0, "n_kompetitor": 0, "Biaya_Risiko": null, "kuadran": "potensi_tinggi", "izin_perdagangan": true, "zonasi_diketahui": false }, "geometry": { "type": "Polygon", "coordinates": [ [ [ 106.859614168200736, -6.208486659788395 ], [ 106.859198049482046, -6.206752281089985 ], [ 106.857423339433623, -6.206316161231891 ], [ 106.856064752743862, -6.207614447142813 ], [ 106.856480896467886, -6.209348830126118 ], [ 106.858255601876792, -6.209784922914258 ], [ 106.859614168200736, -6.208486659788395 ] ] ] } },
{ "type": "Feature", "properties": { "hex_id": "898c10700abffff", "kawasan": "Depok Baru", "indeks_churn": null, "n_properti_go": 0, "n_menu_go": 0, "n_kompetitor": 0, "Biaya_Risiko": null, "kuadran": "potensi_rendah", "izin_perdagangan": true, "zonasi_diketahui": false }, "geometry": { "type": "Polygon", "coordinates": [ [ [ 106.818751007140193, -6.385995020039063 ], [ 106.81833478395221, -6.384263772256523 ], [ 106.816560537590192, -6.383829304945344 ], [ 106.815202519097653, -6.385126112402191 ], [ 106.815618767241375, -6.386857364292071 ], [ 106.817393008922352, -6.387291804618409 ], [ 106.818751007140193, -6.385995020039063 ] ] ] } },
{ "type": "Feature", "properties": { "hex_id": "898c1070547ffff", "kawasan": "Depok Baru", "indeks_churn": null, "n_properti_go": 0, "n_menu_go": 0, "n_kompetitor": 0, "Biaya_Risiko": null, "kuadran": "potensi_rendah", "izin_perdagangan": true, "zonasi_diketahui": false }, "geometry": { "type": "Polygon", "coordinates": [ [ [ 106.818116134813351, -6.397244118124812 ], [ 106.817699921323623, -6.395513082676904 ], [ 106.815925730419423, -6.395078729599081 ], [ 106.814567757686817, -6.396375438951728 ], [ 106.814983996130138, -6.39810647849845 ], [ 106.816758182352942, -6.398540804594363 ], [ 106.818116134813351, -6.397244118124812 ] ] ] } },
{ "type": "Feature", "properties": { "hex_id": "898c1079dc3ffff", "kawasan": "Manggarai", "indeks_churn": null, "n_properti_go": 0, "n_menu_go": 0, "n_kompetitor": 0, "Biaya_Risiko": null, "kuadran": "potensi_tinggi", "izin_perdagangan": true, "zonasi_diketahui": false }, "geometry": { "type": "Polygon", "coordinates": [ [ [ 106.846774530162563, -6.203699167947813 ], [ 106.846358297915856, -6.201964613000194 ], [ 106.844583389509481, -6.20152838171912 ], [ 106.843224718004649, -6.202826732440696 ], [ 106.843640975250779, -6.204561291658657 ], [ 106.845415879002786, -6.204997495885348 ], [ 106.846774530162563, -6.203699167947813 ] ] ] } },
{ "type": "Feature", "properties": { "hex_id": "898c1079d93ffff", "kawasan": "Manggarai", "indeks_churn": null, "n_properti_go": 0, "n_menu_go": 0, "n_kompetitor": 0, "Biaya_Risiko": null, "kuadran": "potensi_tinggi", "izin_perdagangan": true, "zonasi_diketahui": false }, "geometry": { "type": "Polygon", "coordinates": [ [ [ 106.843947321828949, -6.212797433161916 ], [ 106.84353107810125, -6.211063033088389 ], [ 106.841756183660948, -6.210626882965202 ], [ 106.840397537606137, -6.211925159965304 ], [ 106.840813806330345, -6.213659564299045 ], [ 106.84258869611331, -6.214095687373117 ], [ 106.843947321828949, -6.212797433161916 ] ] ] } },
{ "type": "Feature", "properties": { "hex_id": "898c1079cafffff", "kawasan": "Manggarai", "indeks_churn": null, "n_properti_go": 0, "n_menu_go": 0, "n_kompetitor": 0, "Biaya_Risiko": null, "kuadran": "potensi_tinggi", "izin_perdagangan": true, "zonasi_diketahui": false }, "geometry": { "type": "Polygon", "coordinates": [ [ [ 106.853041493759278, -6.201974897068108 ], [ 106.852625311516718, -6.200240350676004 ], [ 106.850850476859449, -6.199804131481486 ], [ 106.849491829092415, -6.201102485742421 ], [ 106.849908036337936, -6.202837036414754 ], [ 106.851682866347971, -6.203273228546556 ], [ 106.853041493759278, -6.201974897068108 ] ] ] } },
{ "type": "Feature", "properties": { "hex_id": "898c1078303ffff", "kawasan": "Manggarai", "indeks_churn": null, "n_properti_go": 0, "n_menu_go": 0, "n_kompetitor": 0, "Biaya_Risiko": null, "kuadran": "potensi_tinggi", "izin_perdagangan": true, "zonasi_diketahui": false }, "geometry": { "type": "Polygon", "coordinates": [ [ [ 106.85365364138255, -6.218446379659773 ], [ 106.853237486169121, -6.216712151576727 ], [ 106.851462753155147, -6.21627610686137 ], [ 106.850104180001111, -6.217574317290217 ], [ 106.850520360215199, -6.219308549643084 ], [ 106.852295088583134, -6.219744567297925 ], [ 106.85365364138255, -6.218446379659773 ] ] ] } },
{ "type": "Feature", "properties": { "hex_id": "898c1070557ffff", "kawasan": "Depok Baru", "indeks_churn": null, "n_properti_go": 0, "n_menu_go": 0, "n_kompetitor": 0, "Biaya_Risiko": null, "kuadran": "potensi_rendah", "izin_perdagangan": true, "zonasi_diketahui": false }, "geometry": { "type": "Polygon", "coordinates": [ [ [ 106.820306476651481, -6.399409417187452 ], [ 106.819890284302275, -6.397678437913831 ], [ 106.818116134813351, -6.397244118124812 ], [ 106.816758182352942, -6.398540804594363 ], [ 106.817174399656565, -6.40027178796837 ], [ 106.81894854446665, -6.400706080773086 ], [ 106.820306476651481, -6.399409417187452 ] ] ] } },
{ "type": "Feature", "properties": { "hex_id": "898c10700d7ffff", "kawasan": "Depok Baru", "indeks_churn": null, "n_properti_go": 0, "n_menu_go": 0, "n_kompetitor": 0, "Biaya_Risiko": null, "kuadran": "potensi_rendah", "izin_perdagangan": true, "zonasi_diketahui": false }, "geometry": { "type": "Polygon", "coordinates": [ [ [ 106.830337657453157, -6.385573530916592 ], [ 106.829921530287564, -6.383842351647078 ], [ 106.828147435618334, -6.383407936478094 ], [ 106.826789472782934, -6.384704727578981 ], [ 106.827205624910363, -6.386435910972129 ], [ 106.82897971491181, -6.386870299141399 ], [ 106.830337657453157, -6.385573530916592 ] ] ] } },
{ "type": "Feature", "properties": { "hex_id": "898c107831bffff", "kawasan": "Manggarai", "indeks_churn": null, "n_properti_go": 0, "n_menu_go": 0, "n_kompetitor": 0, "Biaya_Risiko": null, "kuadran": "potensi_tinggi", "izin_perdagangan": true, "zonasi_diketahui": false }, "geometry": { "type": "Polygon", "coordinates": [ [ [ 106.856786873780038, -6.217584201818443 ], [ 106.856370743569002, -6.21584997801015 ], [ 106.854596047442087, -6.21541393935663 ], [ 106.853237486169121, -6.216712151576727 ], [ 106.85365364138255, -6.218446379659773 ], [ 106.855428332867007, -6.218882391248602 ], [ 106.856786873780038, -6.217584201818443 ] ] ] } },
{ "type": "Feature", "properties": { "hex_id": "898c10705cbffff", "kawasan": "Depok Baru", "indeks_churn": null, "n_properti_go": 0, "n_menu_go": 0, "n_kompetitor": 0, "Biaya_Risiko": null, "kuadran": "potensi_rendah", "izin_perdagangan": true, "zonasi_diketahui": false }, "geometry": { "type": "Polygon", "coordinates": [ [ [ 106.825628722689331, -6.400712237067883 ], [ 106.825212576437778, -6.39898131808087 ], [ 106.823438505117309, -6.398547037892685 ], [ 106.822080584721604, -6.399843703682991 ], [ 106.822496755930118, -6.401574626776831 ], [ 106.824270822577859, -6.402008879974184 ], [ 106.825628722689331, -6.400712237067883 ] ] ] } },
{ "type": "Feature", "properties": { "hex_id": "898c107057bffff", "kawasan": "Depok Baru", "indeks_churn": null, "n_properti_go": 0, "n_menu_go": 0, "n_kompetitor": 0, "Biaya_Risiko": null, "kuadran": "potensi_rendah", "izin_perdagangan": true, "zonasi_diketahui": false }, "geometry": { "type": "Polygon", "coordinates": [ [ [ 106.815925730419423, -6.395078729599081 ], [ 106.815509495789385, -6.393347637982429 ], [ 106.813735263473433, -6.392913251620476 ], [ 106.812377270471984, -6.394209983855372 ], [ 106.812793530054861, -6.395941079569313 ], [ 106.814567757686817, -6.396375438951728 ], [ 106.815925730419423, -6.395078729599081 ] ] ] } },
{ "type": "Feature", "properties": { "hex_id": "898c1070437ffff", "kawasan": "Depok Baru", "indeks_churn": null, "n_properti_go": 0, "n_menu_go": 0, "n_kompetitor": 0, "Biaya_Risiko": null, "kuadran": "potensi_rendah", "izin_perdagangan": true, "zonasi_diketahui": false }, "geometry": { "type": "Polygon", "coordinates": [ [ [ 106.828760640890437, -6.399849838850646 ], [ 106.828344519597607, -6.398118923975373 ], [ 106.826570485036484, -6.39768465009267 ], [ 106.825212576437778, -6.39898131808087 ], [ 106.825628722689331, -6.400712237067883 ], [ 106.827402752581307, -6.401146483955599 ], [ 106.828760640890437, -6.399849838850646 ] ] ] } },
{ "type": "Feature", "properties": { "hex_id": "898c107046fffff", "kawasan": "Depok Baru", "indeks_churn": null, "n_properti_go": 0, "n_menu_go": 0, "n_kompetitor": 0, "Biaya_Risiko": null, "kuadran": "potensi_rendah", "izin_perdagangan": true, "zonasi_diketahui": false }, "geometry": { "type": "Polygon", "coordinates": [ [ [ 106.832527816701898, -6.38773903589949 ], [ 106.832111710681019, -6.386007912797008 ], [ 106.830337657453157, -6.385573530916592 ], [ 106.82897971491181, -6.386870299141399 ], [ 106.829395845895306, -6.388601426369056 ], [ 106.831169894457972, -6.389035781247382 ], [ 106.832527816701898, -6.38773903589949 ] ] ] } },
{ "type": "Feature", "properties": { "hex_id": "898c1078307ffff", "kawasan": "Manggarai", "indeks_churn": null, "n_properti_go": 0, "n_menu_go": 0, "n_kompetitor": 0, "Biaya_Risiko": null, "kuadran": "potensi_tinggi", "izin_perdagangan": true, "zonasi_diketahui": false }, "geometry": { "type": "Polygon", "coordinates": [ [ [ 106.850520360215199, -6.219308549643084 ], [ 106.850104180001111, -6.217574317290217 ], [ 106.848329410109784, -6.217138266511182 ], [ 106.846970825082593, -6.218436475142008 ], [ 106.847387030295565, -6.220170711759763 ], [ 106.849161795537285, -6.220606735482441 ], [ 106.850520360215199, -6.219308549643084 ] ] ] } },
{ "type": "Feature", "properties": { "hex_id": "898c10700c7ffff", "kawasan": "Depok Baru", "indeks_churn": null, "n_properti_go": 0, "n_menu_go": 0, "n_kompetitor": 0, "Biaya_Risiko": null, "kuadran": "potensi_rendah", "izin_perdagangan": true, "zonasi_diketahui": false }, "geometry": { "type": "Polygon", "coordinates": [ [ [ 106.828147435618334, -6.383407936478094 ], [ 106.827731287308211, -6.381676701047056 ], [ 106.82595715120118, -6.381242252594189 ], [ 106.824599168075096, -6.382539066570347 ], [ 106.825015341346258, -6.384270306123452 ], [ 106.826789472782934, -6.384704727578981 ], [ 106.828147435618334, -6.383407936478094 ] ] ] } },
{ "type": "Feature", "properties": { "hex_id": "898c107043bffff", "kawasan": "Depok Baru", "indeks_churn": null, "n_properti_go": 0, "n_menu_go": 0, "n_kompetitor": 0, "Biaya_Risiko": null, "kuadran": "potensi_rendah", "izin_perdagangan": true, "zonasi_diketahui": false }, "geometry": { "type": "Polygon", "coordinates": [ [ [ 106.832834299164432, -6.395959849011399 ], [ 106.83241820665053, -6.394228886188358 ], [ 106.830644204193788, -6.393794591608366 ], [ 106.829286298916003, -6.395091286852981 ], [ 106.82970241639137, -6.396822253796039 ], [ 106.831476414183498, -6.397256521375109 ], [ 106.832834299164432, -6.395959849011399 ] ] ] } },
{ "type": "Feature", "properties": { "hex_id": "898c1070477ffff", "kawasan": "Depok Baru", "indeks_churn": null, "n_properti_go": 0, "n_menu_go": 0, "n_kompetitor": 0, "Biaya_Risiko": null, "kuadran": "potensi_rendah", "izin_perdagangan": true, "zonasi_diketahui": false }, "geometry": { "type": "Polygon", "coordinates": [ [ [ 106.833776100112857, -6.392932188766881 ], [ 106.833360011417739, -6.391201173886734 ], [ 106.831586004297378, -6.390766852304041 ], [ 106.83022809053621, -6.392063572604846 ], [ 106.830644204193788, -6.393794591608366 ], [ 106.83241820665053, -6.394228886188358 ], [ 106.833776100112857, -6.392932188766881 ] ] ] } },
{ "type": "Feature", "properties": { "hex_id": "898c1079cbbffff", "kawasan": "Manggarai", "indeks_churn": null, "n_properti_go": 0, "n_menu_go": 0, "n_kompetitor": 0, "Biaya_Risiko": null, "kuadran": "potensi_tinggi", "izin_perdagangan": true, "zonasi_diketahui": false }, "geometry": { "type": "Polygon", "coordinates": [ [ [ 106.858365794700916, -6.203283416173814 ], [ 106.857949658638319, -6.20154892996073 ], [ 106.856174902408995, -6.201112749916466 ], [ 106.854816286883803, -6.202411083155221 ], [ 106.855232447951906, -6.20414557365502 ], [ 106.857007199540149, -6.204581726629996 ], [ 106.858365794700916, -6.203283416173814 ] ] ] } },
{ "type": "Feature", "properties": { "hex_id": "898c1079d8bffff", "kawasan": "Manggarai", "indeks_churn": null, "n_properti_go": 0, "n_menu_go": 0, "n_kompetitor": 0, "Biaya_Risiko": null, "kuadran": "potensi_tinggi", "izin_perdagangan": true, "zonasi_diketahui": false }, "geometry": { "type": "Polygon", "coordinates": [ [ [ 106.842698573301192, -6.207594125412873 ], [ 106.842282312228647, -6.205859617815573 ], [ 106.840507371620191, -6.205423407538682 ], [ 106.839148696743635, -6.206721731908201 ], [ 106.839564982812846, -6.208456243767537 ], [ 106.841339918762401, -6.208892426995967 ], [ 106.842698573301192, -6.207594125412873 ] ] ] } },
{ "type": "Feature", "properties": { "hex_id": "898c1078353ffff", "kawasan": "Manggarai", "indeks_churn": null, "n_properti_go": 0, "n_menu_go": 0, "n_kompetitor": 0, "Biaya_Risiko": null, "kuadran": "potensi_tinggi", "izin_perdagangan": true, "zonasi_diketahui": false }, "geometry": { "type": "Polygon", "coordinates": [ [ [ 106.860862489670211, -6.213689580816826 ], [ 106.860446388294747, -6.211955309654156 ], [ 106.858671724426628, -6.211519249990046 ], [ 106.857313166572354, -6.21281748855984 ], [ 106.857729292952982, -6.214551764005587 ], [ 106.859503952183175, -6.214987796599105 ], [ 106.860862489670211, -6.213689580816826 ] ] ] } },
{ "type": "Feature", "properties": { "hex_id": "898c10705cfffff", "kawasan": "Depok Baru", "indeks_churn": null, "n_properti_go": 0, "n_menu_go": 0, "n_kompetitor": 0, "Biaya_Risiko": null, "kuadran": "potensi_rendah", "izin_perdagangan": true, "zonasi_diketahui": false }, "geometry": { "type": "Polygon", "coordinates": [ [ [ 106.822496755930118, -6.401574626776831 ], [ 106.822080584721604, -6.399843703682991 ], [ 106.820306476651481, -6.399409417187452 ], [ 106.81894854446665, -6.400706080773086 ], [ 106.819364740630377, -6.402437007968865 ], [ 106.821138844024205, -6.402871267477714 ], [ 106.822496755930118, -6.401574626776831 ] ] ] } },
{ "type": "Feature", "properties": { "hex_id": "898c10700a7ffff", "kawasan": "Depok Baru", "indeks_churn": null, "n_properti_go": 0, "n_menu_go": 0, "n_kompetitor": 0, "Biaya_Risiko": null, "kuadran": "potensi_rendah", "izin_perdagangan": true, "zonasi_diketahui": false }, "geometry": { "type": "Polygon", "coordinates": [ [ [ 106.81467700920237, -6.389885346522601 ], [ 106.814260757245222, -6.388154146684045 ], [ 106.812486478835496, -6.387719700063735 ], [ 106.811128457068975, -6.389016480261563 ], [ 106.811544733979119, -6.390747684199193 ], [ 106.813319007703257, -6.391182103840571 ], [ 106.81467700920237, -6.389885346522601 ] ] ] } },
{ "type": "Feature", "properties": { "hex_id": "898c1079c87ffff", "kawasan": "Manggarai", "indeks_churn": null, "n_properti_go": 0, "n_menu_go": 0, "n_kompetitor": 0, "Biaya_Risiko": null, "kuadran": "potensi_tinggi", "izin_perdagangan": true, "zonasi_diketahui": false }, "geometry": { "type": "Polygon", "coordinates": [ [ [ 106.860556624275034, -6.20545399341723 ], [ 106.860140509387847, -6.203719563103602 ], [ 106.858365794700916, -6.203283416173814 ], [ 106.857007199540149, -6.204581726629996 ], [ 106.857423339433623, -6.206316161231891 ], [ 106.859198049482046, -6.206752281089985 ], [ 106.860556624275034, -6.20545399341723 ] ] ] } },
{ "type": "Feature", "properties": { "hex_id": "898c107835bffff", "kawasan": "Manggarai", "indeks_churn": null, "n_properti_go": 0, "n_menu_go": 0, "n_kompetitor": 0, "Biaya_Risiko": null, "kuadran": "potensi_tinggi", "izin_perdagangan": true, "zonasi_diketahui": false }, "geometry": { "type": "Polygon", "coordinates": [ [ [ 106.861804934249506, -6.210657069314204 ], [ 106.861388836705785, -6.208922746524868 ], [ 106.859614168200736, -6.208486659788395 ], [ 106.858255601876792, -6.209784922914258 ], [ 106.858671724426628, -6.211519249990046 ], [ 106.860446388294747, -6.211955309654156 ], [ 106.861804934249506, -6.210657069314204 ] ] ] } },
{ "type": "Feature", "properties": { "hex_id": "898c1070003ffff", "kawasan": "Depok Baru", "indeks_churn": null, "n_properti_go": 0, "n_menu_go": 0, "n_kompetitor": 0, "Biaya_Risiko": null, "kuadran": "potensi_rendah", "izin_perdagangan": true, "zonasi_diketahui": false }, "geometry": { "type": "Polygon", "coordinates": [ [ [ 106.822824995206716, -6.382104611833225 ], [ 106.822408800791976, -6.38037331612566 ], [ 106.820634586495459, -6.379938828111646 ], [ 106.819276571290629, -6.381235662796638 ], [ 106.819692790663865, -6.382966962619816 ], [ 106.821467000283889, -6.383401423643033 ], [ 106.822824995206716, -6.382104611833225 ] ] ] } },
{ "type": "Feature", "properties": { "hex_id": "898c1079dc7ffff", "kawasan": "Manggarai", "indeks_churn": null, "n_properti_go": 0, "n_menu_go": 0, "n_kompetitor": 0, "Biaya_Risiko": null, "kuadran": "potensi_tinggi", "izin_perdagangan": true, "zonasi_diketahui": false }, "geometry": { "type": "Polygon", "coordinates": [ [ [ 106.843640975250779, -6.204561291658657 ], [ 106.843224718004649, -6.202826732440696 ], [ 106.841449772738244, -6.202390495113587 ], [ 106.840091089376372, -6.203688844055307 ], [ 106.840507371620191, -6.205423407538682 ], [ 106.842282312228647, -6.205859617815573 ], [ 106.843640975250779, -6.204561291658657 ] ] ] } },
{ "type": "Feature", "properties": { "hex_id": "898c1079d83ffff", "kawasan": "Manggarai", "indeks_churn": null, "n_properti_go": 0, "n_menu_go": 0, "n_kompetitor": 0, "Biaya_Risiko": null, "kuadran": "potensi_tinggi", "izin_perdagangan": true, "zonasi_diketahui": false }, "geometry": { "type": "Polygon", "coordinates": [ [ [ 106.841756183660948, -6.210626882965202 ], [ 106.841339918762401, -6.208892426995967 ], [ 106.839564982812846, -6.208456243767537 ], [ 106.838206316422244, -6.209754543555706 ], [ 106.838622606316505, -6.211489003783584 ], [ 106.840397537606137, -6.211925159965304 ], [ 106.841756183660948, -6.210626882965202 ] ] ] } },
{ "type": "Feature", "properties": { "hex_id": "898c1079cabffff", "kawasan": "Manggarai", "indeks_churn": null, "n_properti_go": 0, "n_menu_go": 0, "n_kompetitor": 0, "Biaya_Risiko": null, "kuadran": "potensi_tinggi", "izin_perdagangan": true, "zonasi_diketahui": false }, "geometry": { "type": "Polygon", "coordinates": [ [ [ 106.856174902408995, -6.201112749916466 ], [ 106.855758745171158, -6.199378207809527 ], [ 106.853983947402966, -6.198941994655542 ], [ 106.852625311516718, -6.200240350676004 ], [ 106.853041493759278, -6.201974897068108 ], [ 106.854816286883803, -6.202411083155221 ], [ 106.856174902408995, -6.201112749916466 ] ] ] } },
{ "type": "Feature", "properties": { "hex_id": "898c10700afffff", "kawasan": "Depok Baru", "indeks_churn": null, "n_properti_go": 0, "n_menu_go": 0, "n_kompetitor": 0, "Biaya_Risiko": null, "kuadran": "potensi_rendah", "izin_perdagangan": true, "zonasi_diketahui": false }, "geometry": { "type": "Polygon", "coordinates": [ [ [ 106.815618767241375, -6.386857364292071 ], [ 106.815202519097653, -6.385126112402191 ], [ 106.813428236003332, -6.38469163880119 ], [ 106.812070205737797, -6.385988444071424 ], [ 106.812486478835496, -6.387719700063735 ], [ 106.814260757245222, -6.388154146684045 ], [ 106.815618767241375, -6.386857364292071 ] ] ] } },
{ "type": "Feature", "properties": { "hex_id": "898c1070007ffff", "kawasan": "Depok Baru", "indeks_churn": null, "n_properti_go": 0, "n_menu_go": 0, "n_kompetitor": 0, "Biaya_Risiko": null, "kuadran": "potensi_rendah", "izin_perdagangan": true, "zonasi_diketahui": false }, "geometry": { "type": "Polygon", "coordinates": [ [ [ 106.819692790663865, -6.382966962619816 ], [ 106.819276571290629, -6.381235662796638 ], [ 106.817502320248565, -6.380801168498812 ], [ 106.816144293260237, -6.382098001011458 ], [ 106.816560537590192, -6.383829304945344 ], [ 106.81833478395221, -6.384263772256523 ], [ 106.819692790663865, -6.382966962619816 ] ] ] } },
{ "type": "Feature", "properties": { "hex_id": "898c1078323ffff", "kawasan": "Manggarai", "indeks_churn": null, "n_properti_go": 0, "n_menu_go": 0, "n_kompetitor": 0, "Biaya_Risiko": null, "kuadran": "potensi_tinggi", "izin_perdagangan": true, "zonasi_diketahui": false }, "geometry": { "type": "Polygon", "coordinates": [ [ [ 106.845196018323591, -6.218000418297465 ], [ 106.844779791940041, -6.216266125768797 ], [ 106.843004943667268, -6.215830035807112 ], [ 106.841646326434287, -6.217128265424535 ], [ 106.842062577814161, -6.218862562211594 ], [ 106.843837421431175, -6.219298625123496 ], [ 106.845196018323591, -6.218000418297465 ] ] ] } },
{ "type": "Feature", "properties": { "hex_id": "898c1070433ffff", "kawasan": "Depok Baru", "indeks_churn": null, "n_properti_go": 0, "n_menu_go": 0, "n_kompetitor": 0, "Biaya_Risiko": null, "kuadran": "potensi_rendah", "izin_perdagangan": true, "zonasi_diketahui": false }, "geometry": { "type": "Polygon", "coordinates": [ [ [ 106.831892510515829, -6.398987432133733 ], [ 106.831476414183498, -6.397256521375109 ], [ 106.82970241639137, -6.396822253796039 ], [ 106.828344519597607, -6.398118923975373 ], [ 106.828760640890437, -6.399849838850646 ], [ 106.830534634016971, -6.400284079430582 ], [ 106.831892510515829, -6.398987432133733 ] ] ] } },
{ "type": "Feature", "properties": { "hex_id": "898c10783cfffff", "kawasan": "Manggarai", "indeks_churn": null, "n_properti_go": 0, "n_menu_go": 0, "n_kompetitor": 0, "Biaya_Risiko": null, "kuadran": "potensi_tinggi", "izin_perdagangan": true, "zonasi_diketahui": false }, "geometry": { "type": "Polygon", "coordinates": [ [ [ 106.859920057390042, -6.216722016127696 ], [ 106.859503952183175, -6.214987796599105 ], [ 106.857729292952982, -6.214551764005587 ], [ 106.856370743569002, -6.21584997801015 ], [ 106.856786873780038, -6.217584201818443 ], [ 106.858561528371311, -6.218020207343111 ], [ 106.859920057390042, -6.216722016127696 ] ] ] } },
{ "type": "Feature", "properties": { "hex_id": "898c1079dcbffff", "kawasan": "Manggarai", "indeks_churn": null, "n_properti_go": 0, "n_menu_go": 0, "n_kompetitor": 0, "Biaya_Risiko": null, "kuadran": "potensi_tinggi", "izin_perdagangan": true, "zonasi_diketahui": false }, "geometry": { "type": "Polygon", "coordinates": [ [ [ 106.847716957555747, -6.200666260505552 ], [ 106.847300729136762, -6.198931653948078 ], [ 106.845525816077014, -6.198495395610875 ], [ 106.844167136090093, -6.199793770887922 ], [ 106.844583389509481, -6.20152838171912 ], [ 106.846358297915856, -6.201964613000194 ], [ 106.847716957555747, -6.200666260505552 ] ] ] } },
{ "type": "Feature", "properties": { "hex_id": "898c107832fffff", "kawasan": "Manggarai", "indeks_churn": null, "n_properti_go": 0, "n_menu_go": 0, "n_kompetitor": 0, "Biaya_Risiko": null, "kuadran": "potensi_tinggi", "izin_perdagangan": true, "zonasi_diketahui": false }, "geometry": { "type": "Polygon", "coordinates": [ [ [ 106.843004943667268, -6.215830035807112 ], [ 106.84258869611331, -6.214095687373117 ], [ 106.840813806330345, -6.213659564299045 ], [ 106.839455168760139, -6.214957816706995 ], [ 106.839871441309654, -6.216692169397827 ], [ 106.841646326434287, -6.217128265424535 ], [ 106.843004943667268, -6.215830035807112 ] ] ] } },
{ "type": "Feature", "properties": { "hex_id": "898c1070463ffff", "kawasan": "Depok Baru", "indeks_churn": null, "n_properti_go": 0, "n_menu_go": 0, "n_kompetitor": 0, "Biaya_Risiko": null, "kuadran": "potensi_rendah", "izin_perdagangan": true, "zonasi_diketahui": false }, "geometry": { "type": "Polygon", "coordinates": [ [ [ 106.834717913360876, -6.389904451416588 ], [ 106.834301828484897, -6.388173384486648 ], [ 106.832527816701898, -6.38773903589949 ], [ 106.831169894457972, -6.389035781247382 ], [ 106.831586004297378, -6.390766852304041 ], [ 106.833360011417739, -6.391201173886734 ], [ 106.834717913360876, -6.389904451416588 ] ] ] } },
{ "type": "Feature", "properties": { "hex_id": "898c1079c37ffff", "kawasan": "Manggarai", "indeks_churn": null, "n_properti_go": 0, "n_menu_go": 0, "n_kompetitor": 0, "Biaya_Risiko": null, "kuadran": "potensi_tinggi", "izin_perdagangan": true, "zonasi_diketahui": false }, "geometry": { "type": "Polygon", "coordinates": [ [ [ 106.850850476859449, -6.199804131481486 ], [ 106.85043427344263, -6.198069529202678 ], [ 106.848659397256156, -6.197633276905505 ], [ 106.847300729136762, -6.198931653948078 ], [ 106.847716957555747, -6.200666260505552 ], [ 106.849491829092415, -6.201102485742421 ], [ 106.850850476859449, -6.199804131481486 ] ] ] } },
{ "type": "Feature", "properties": { "hex_id": "898c107056bffff", "kawasan": "Depok Baru", "indeks_churn": null, "n_properti_go": 0, "n_menu_go": 0, "n_kompetitor": 0, "Biaya_Risiko": null, "kuadran": "potensi_rendah", "izin_perdagangan": true, "zonasi_diketahui": false }, "geometry": { "type": "Polygon", "coordinates": [ [ [ 106.813735263473433, -6.392913251620476 ], [ 106.813319007703257, -6.391182103840571 ], [ 106.811544733979119, -6.390747684199193 ], [ 106.810186720712196, -6.392044439315504 ], [ 106.810603001434416, -6.393775591191136 ], [ 106.812377270471984, -6.394209983855372 ], [ 106.813735263473433, -6.392913251620476 ] ] ] } }
]
}
